{"type":"FeatureCollection","metadata":{"source":"https://raw.githubusercontent.com/lch854053/donggu-building/main/apt_geo.json","positionMeaning":"point within mapped cadastral parcel, not entrance or building location"},"features":[{"type":"Feature","geometry":{"type":"Point","coordinates":[126.9157473839135,35.152223390637744]},"properties":{"id":"2911010100101480001-영무파라드도시형생활주택","name":"영무파라드도시형생활주택","kind":"아파트","pnu":"2911010100101480001","address":"전남광주통합특별시 동구 대인동 148-1","source":"kapt","households":140}},{"type":"Feature","geometry":{"type":"Point","coordinates":[126.91372665303903,35.151772703044664]},"properties":{"id":"2911010200101540001-금남로AM-CITY하이클래스","name":"금남로AM-CITY하이클래스","kind":"아파트","pnu":"2911010200101540001","address":"전남광주통합특별시 동구 금남로5가 154-1","source":"kapt","households":297}},{"type":"Feature","geometry":{"type":"Point","coordinates":[126.91012548196463,35.150139366328716]},"properties":{"id":"2911010400100330000-아르티엠더퍼플아파트","name":"아르티엠더퍼플아파트","kind":"아파트","pnu":"2911010400100330000","address":"전남광주통합특별시 동구 수기동 33","source":"kapt","households":175}},{"type":"Feature","geometry":{"type":"Point","coordinates":[126.92629057250352,35.16167621557132]},"properties":{"id":"2911010900118690000-계림아이파크SK뷰","name":"계림아이파크SK뷰","kind":"아파트","pnu":"2911010900118690000","address":"전남광주통합특별시 동구 계림동 1869","source":"kapt","households":1715}},{"type":"Feature","geometry":{"type":"Point","coordinates":[126.92228552297786,35.156580664678266]},"properties":{"id":"2911010900118450000-두산위브더파크","name":"두산위브더파크","kind":"아파트","pnu":"2911010900118450000","address":"전남광주통합특별시 동구 계림동 1845","source":"kapt","households":908}},{"type":"Feature","geometry":{"type":"Point","coordinates":[126.91563529589851,35.15718559625987]},"properties":{"id":"2911010900118270000-그랜드센트럴","name":"그랜드센트럴","kind":"아파트","pnu":"2911010900118270000","address":"전남광주통합특별시 동구 계림동 1827","source":"kapt","households":2336}},{"type":"Feature","geometry":{"type":"Point","coordinates":[126.92463469019336,35.157401424643126]},"properties":{"id":"2911010900118150000-푸른길 두산위브","name":"푸른길 두산위브","kind":"아파트","pnu":"2911010900118150000","address":"전남광주통합특별시 동구 계림동 1815","source":"kapt","households":648}},{"type":"Feature","geometry":{"type":"Point","coordinates":[126.92025080671928,35.16370911121593]},"properties":{"id":"2911010900101000011-금호주상복합아파트","name":"금호주상복합아파트","kind":"아파트","pnu":"2911010900101000011","address":"전남광주통합특별시 동구 계림동 100-11","source":"kapt","households":229}},{"type":"Feature","geometry":{"type":"Point","coordinates":[126.92233649269917,35.16320542700416]},"properties":{"id":"2911010900101000001-계림금호1차","name":"계림금호1차","kind":"아파트","pnu":"2911010900101000001","address":"전남광주통합특별시 동구 계림동 100-1","source":"kapt","households":958}},{"type":"Feature","geometry":{"type":"Point","coordinates":[126.92393101873702,35.15951327946629]},"properties":{"id":"2911010900100520000-두산위브","name":"두산위브","kind":"아파트","pnu":"2911010900100520000","address":"전남광주통합특별시 동구 계림동 52","source":"kapt","households":658}},{"type":"Feature","geometry":{"type":"Point","coordinates":[126.93972341302398,35.15626991849726]},"properties":{"id":"2911011000100790003-산수무등파크맨션","name":"산수무등파크맨션","kind":"아파트","pnu":"2911011000100790003","address":"전남광주통합특별시 동구 산수동 79-3","source":"kapt","households":120}},{"type":"Feature","geometry":{"type":"Point","coordinates":[126.9382909151877,35.155249329276465]},"properties":{"id":"2911011000107300000-무등산 명지로드힐포레","name":"무등산 명지로드힐포레","kind":"아파트","pnu":"2911011000107300000","address":"전남광주통합특별시 동구 산수동 730","source":"kapt","households":270}},{"type":"Feature","geometry":{"type":"Point","coordinates":[126.92533154796345,35.155271020795055]},"properties":{"id":"2911011000107230000-무등산 그린웰 로제비앙","name":"무등산 그린웰 로제비앙","kind":"아파트","pnu":"2911011000107230000","address":"전남광주통합특별시 동구 산수동 723","source":"kapt","households":1075}},{"type":"Feature","geometry":{"type":"Point","coordinates":[126.93661612659054,35.15696702460543]},"properties":{"id":"2911011000107160000-무등산 광신프로그레스","name":"무등산 광신프로그레스","kind":"아파트","pnu":"2911011000107160000","address":"전남광주통합특별시 동구 산수동 716","source":"kapt","households":335}},{"type":"Feature","geometry":{"type":"Point","coordinates":[126.93721827161343,35.160813923987035]},"properties":{"id":"2911011000106890000-두암그린파크","name":"두암그린파크","kind":"아파트","pnu":"2911011000106890000","address":"전남광주통합특별시 동구 산수동 689","source":"kapt","households":473}},{"type":"Feature","geometry":{"type":"Point","coordinates":[126.93829118962353,35.15636778787089]},"properties":{"id":"2911011000100840000-광명아파트","name":"광명아파트","kind":"아파트","pnu":"2911011000100840000","address":"전남광주통합특별시 동구 산수동 84","source":"kapt","households":192}},{"type":"Feature","geometry":{"type":"Point","coordinates":[126.9339359102612,35.15991326004391]},"properties":{"id":"2911011000105680001-두암타운","name":"두암타운","kind":"아파트","pnu":"2911011000105680001","address":"전남광주통합특별시 동구 산수동 568-1","source":"kapt","households":952}},{"type":"Feature","geometry":{"type":"Point","coordinates":[126.93858037572262,35.15080625709792]},"properties":{"id":"2911011100103150001-삼성아파트","name":"삼성아파트","kind":"아파트","pnu":"2911011100103150001","address":"전남광주통합특별시 동구 지산동 315-1","source":"kapt","households":314}},{"type":"Feature","geometry":{"type":"Point","coordinates":[126.92847378543301,35.15252550638294]},"properties":{"id":"2911011100106710000-지산휴먼시아","name":"지산휴먼시아","kind":"아파트","pnu":"2911011100106710000","address":"전남광주통합특별시 동구 지산동 671","source":"kapt","households":375}},{"type":"Feature","geometry":{"type":"Point","coordinates":[126.93744995584518,35.123508901176145]},"properties":{"id":"2911011900111130000-e편한세상무등산아파트","name":"e편한세상무등산아파트","kind":"아파트","pnu":"2911011900111130000","address":"전남광주통합특별시 동구 소태동 1113","source":"kapt","households":286}},{"type":"Feature","geometry":{"type":"Point","coordinates":[126.93139970102672,35.129433072152]},"properties":{"id":"2911011900111030000-무등산골드클래스","name":"무등산골드클래스","kind":"아파트","pnu":"2911011900111030000","address":"전남광주통합특별시 동구 소태동 1103","source":"kapt","households":690}},{"type":"Feature","geometry":{"type":"Point","coordinates":[126.94094203128024,35.13159214076163]},"properties":{"id":"2911011900107610003-소태한국아델리움아파트","name":"소태한국아델리움아파트","kind":"아파트","pnu":"2911011900107610003","address":"전남광주통합특별시 동구 소태동 761-3","source":"kapt","households":86}},{"type":"Feature","geometry":{"type":"Point","coordinates":[126.93560899188708,35.123198718513635]},"properties":{"id":"2911011900104430000-소태진아2차하이빌","name":"소태진아2차하이빌","kind":"아파트","pnu":"2911011900104430000","address":"전남광주통합특별시 동구 소태동 443","source":"kapt","households":157}},{"type":"Feature","geometry":{"type":"Point","coordinates":[126.93428232844602,35.12014975114969]},"properties":{"id":"2911011900106910000-온세계아이조움","name":"온세계아이조움","kind":"아파트","pnu":"2911011900106910000","address":"전남광주통합특별시 동구 소태동 691","source":"kapt","households":148}},{"type":"Feature","geometry":{"type":"Point","coordinates":[126.93597440045312,35.124999601707806]},"properties":{"id":"2911011900104800002-대아아파트","name":"대아아파트","kind":"아파트","pnu":"2911011900104800002","address":"전남광주통합특별시 동구 소태동 480-2","source":"kapt","households":165}},{"type":"Feature","geometry":{"type":"Point","coordinates":[126.93692149398471,35.12707838049319]},"properties":{"id":"2911011900105010000-지원동 모아미래도","name":"지원동 모아미래도","kind":"아파트","pnu":"2911011900105010000","address":"전남광주통합특별시 동구 소태동 501","source":"kapt","households":580}},{"type":"Feature","geometry":{"type":"Point","coordinates":[126.9410669324478,35.135354231320605]},"properties":{"id":"2911012100105970000-무등파크2차","name":"무등파크2차","kind":"아파트","pnu":"2911012100105970000","address":"전남광주통합특별시 동구 운림동 597","source":"kapt","households":154}},{"type":"Feature","geometry":{"type":"Point","coordinates":[126.94340198780249,35.13398428776509]},"properties":{"id":"2911012100105830000-운림동라인1차아파트","name":"운림동라인1차아파트","kind":"아파트","pnu":"2911012100105830000","address":"전남광주통합특별시 동구 운림동 583","source":"kapt","households":217}},{"type":"Feature","geometry":{"type":"Point","coordinates":[126.9405038399724,35.1343433580421]},"properties":{"id":"2911012100106030000-무등1차","name":"무등1차","kind":"아파트","pnu":"2911012100106030000","address":"전남광주통합특별시 동구 운림동 603","source":"kapt","households":296}},{"type":"Feature","geometry":{"type":"Point","coordinates":[126.94244118620546,35.13553236277908]},"properties":{"id":"2911012100105670001-운림라인광명","name":"운림라인광명","kind":"아파트","pnu":"2911012100105670001","address":"전남광주통합특별시 동구 운림동 567-1","source":"kapt","households":321}},{"type":"Feature","geometry":{"type":"Point","coordinates":[126.9420871293602,35.134060427158346]},"properties":{"id":"2911012100105880000-무등스위트맨션","name":"무등스위트맨션","kind":"아파트","pnu":"2911012100105880000","address":"전남광주통합특별시 동구 운림동 588","source":"kapt","households":138}},{"type":"Feature","geometry":{"type":"Point","coordinates":[126.94361350888781,35.1330589221194]},"properties":{"id":"2911012100106540000-라인2차","name":"라인2차","kind":"아파트","pnu":"2911012100106540000","address":"전남광주통합특별시 동구 운림동 654","source":"kapt","households":354}},{"type":"Feature","geometry":{"type":"Point","coordinates":[126.9320568984204,35.13280481584438]},"properties":{"id":"2911012200107190034-학동 무등파크맨션","name":"학동 무등파크맨션","kind":"아파트","pnu":"2911012200107190034","address":"전남광주통합특별시 동구 학동 719-34","source":"kapt","households":148}},{"type":"Feature","geometry":{"type":"Point","coordinates":[126.93827838036636,35.13487310979176]},"properties":{"id":"2911012200110200000-학동남해오네뜨 아파트","name":"학동남해오네뜨 아파트","kind":"아파트","pnu":"2911012200110200000","address":"전남광주통합특별시 동구 학동 1020","source":"kapt","households":117}},{"type":"Feature","geometry":{"type":"Point","coordinates":[126.92304804344103,35.1374155324775]},"properties":{"id":"2911012200110220000-무등산 아이파크","name":"무등산 아이파크","kind":"아파트","pnu":"2911012200110220000","address":"전남광주통합특별시 동구 학동 1022","source":"kapt","households":1410}},{"type":"Feature","geometry":{"type":"Point","coordinates":[126.93028279745612,35.13126045303667]},"properties":{"id":"2911012200107500001-삼익세라믹","name":"삼익세라믹","kind":"아파트","pnu":"2911012200107500001","address":"전남광주통합특별시 동구 학동 750-1","source":"kapt","households":480}},{"type":"Feature","geometry":{"type":"Point","coordinates":[126.92778726158974,35.13088319543393]},"properties":{"id":"2911012200110120000-무등산리버파크","name":"무등산리버파크","kind":"아파트","pnu":"2911012200110120000","address":"전남광주통합특별시 동구 학동 1012","source":"kapt","households":794}},{"type":"Feature","geometry":{"type":"Point","coordinates":[126.92692500804192,35.13616152031555]},"properties":{"id":"2911012200106230000-학1마을","name":"학1마을","kind":"아파트","pnu":"2911012200106230000","address":"전남광주통합특별시 동구 학동 623","source":"kapt","households":297}},{"type":"Feature","geometry":{"type":"Point","coordinates":[126.9380906478493,35.13385752227025]},"properties":{"id":"2911012200102620001-학동금호베스트빌","name":"학동금호베스트빌","kind":"아파트","pnu":"2911012200102620001","address":"전남광주통합특별시 동구 학동 262-1","source":"kapt","households":262}},{"type":"Feature","geometry":{"type":"Point","coordinates":[126.93527173261012,35.13469564638802]},"properties":{"id":"2911012200102700000-현대아파트","name":"현대아파트","kind":"아파트","pnu":"2911012200102700000","address":"전남광주통합특별시 동구 학동 270","source":"kapt","households":250}},{"type":"Feature","geometry":{"type":"Point","coordinates":[126.93066510748599,35.133889249658424]},"properties":{"id":"2911012200106760001-아남","name":"아남","kind":"아파트","pnu":"2911012200106760001","address":"전남광주통합특별시 동구 학동 676-1","source":"kapt","households":299}},{"type":"Feature","geometry":{"type":"Point","coordinates":[126.93147199744999,35.13136377032774]},"properties":{"id":"2911012200107680000-평화맨션","name":"평화맨션","kind":"아파트","pnu":"2911012200107680000","address":"전남광주통합특별시 동구 학동 768","source":"kapt","households":360}},{"type":"Feature","geometry":{"type":"Point","coordinates":[126.92663495209807,35.130644366979475]},"properties":{"id":"2911012200108980004-학동백화아파트","name":"학동백화아파트","kind":"아파트","pnu":"2911012200108980004","address":"전남광주통합특별시 동구 학동 898-4","source":"kapt","households":165}},{"type":"Feature","geometry":{"type":"Point","coordinates":[126.9389232750458,35.09941124555366]},"properties":{"id":"2911012300106380000-월남2차 호반베르디움","name":"월남2차 호반베르디움","kind":"아파트","pnu":"2911012300106380000","address":"전남광주통합특별시 동구 월남동 638","source":"kapt","households":784}},{"type":"Feature","geometry":{"type":"Point","coordinates":[126.9374983996066,35.103837213717895]},"properties":{"id":"2911012300106200000-월남호반베르디움1차","name":"월남호반베르디움1차","kind":"아파트","pnu":"2911012300106200000","address":"전남광주통합특별시 동구 월남동 620","source":"kapt","households":654}},{"type":"Feature","geometry":{"type":"Point","coordinates":[126.95399737604234,35.08970161486475]},"properties":{"id":"2911012400104880000-선교2차 우방아이유쉘리포레","name":"선교2차 우방아이유쉘리포레","kind":"아파트","pnu":"2911012400104880000","address":"전남광주통합특별시 동구 선교동 488","source":"kapt","households":906}},{"type":"Feature","geometry":{"type":"Point","coordinates":[126.95159016354592,35.08912930735005]},"properties":{"id":"2911012400104870000-선교1지구 우방아이유쉘아파트","name":"선교1지구 우방아이유쉘아파트","kind":"아파트","pnu":"2911012400104870000","address":"전남광주통합특별시 동구 선교동 487","source":"kapt","households":490}},{"type":"Feature","geometry":{"type":"Point","coordinates":[126.94205906510706,35.08951712374585]},"properties":{"id":"2911012500109040000-내남지구2차진아리채","name":"내남지구2차진아리채","kind":"아파트","pnu":"2911012500109040000","address":"전남광주통합특별시 동구 내남동 904","source":"kapt","households":544}},{"type":"Feature","geometry":{"type":"Point","coordinates":[126.94062888486204,35.091286745761366]},"properties":{"id":"2911012500109020000-내남지구 진아리채","name":"내남지구 진아리채","kind":"아파트","pnu":"2911012500109020000","address":"전남광주통합특별시 동구 내남동 902","source":"kapt","households":483}},{"type":"Feature","geometry":{"type":"Point","coordinates":[126.93135885743393,35.123983401670884]},"properties":{"id":"2911012600107470000-무등산골드클래스2차","name":"무등산골드클래스2차","kind":"아파트","pnu":"2911012600107470000","address":"전남광주통합특별시 동구 용산동 747","source":"kapt","households":772}},{"type":"Feature","geometry":{"type":"Point","coordinates":[126.92495671566127,35.120489695644295]},"properties":{"id":"2911012600106620000-용산 리슈빌아파트","name":"용산 리슈빌아파트","kind":"아파트","pnu":"2911012600106620000","address":"전남광주통합특별시 동구 용산동 662","source":"kapt","households":820}},{"type":"Feature","geometry":{"type":"Point","coordinates":[126.922050898108,35.11816677792463]},"properties":{"id":"2911012600106690000-광주 용산LH 1단지","name":"광주 용산LH 1단지","kind":"아파트","pnu":"2911012600106690000","address":"전남광주통합특별시 동구 용산동 669","source":"kapt","households":528}},{"type":"Feature","geometry":{"type":"Point","coordinates":[126.92600920817301,35.118591554051946]},"properties":{"id":"2911012600106630000-용산모아엘가에듀파크","name":"용산모아엘가에듀파크","kind":"아파트","pnu":"2911012600106630000","address":"전남광주통합특별시 동구 용산동 663","source":"kapt","households":570}},{"type":"Feature","geometry":{"type":"Point","coordinates":[126.92330376819041,35.118796615757276]},"properties":{"id":"2911012600106680000-용산대성베르힐","name":"용산대성베르힐","kind":"아파트","pnu":"2911012600106680000","address":"전남광주통합특별시 동구 용산동 668","source":"kapt","households":279}},{"type":"Feature","geometry":{"type":"Point","coordinates":[126.93288446299857,35.11937366129904]},"properties":{"id":"2911012600106360031-한국아파트","name":"한국아파트","kind":"아파트","pnu":"2911012600106360031","address":"전남광주통합특별시 동구 용산동 636-31","source":"kapt","households":156}},{"type":"Feature","geometry":{"type":"Point","coordinates":[126.93234790879148,35.11817583436135]},"properties":{"id":"2911012600101770000-동산타워","name":"동산타워","kind":"아파트","pnu":"2911012600101770000","address":"전남광주통합특별시 동구 용산동 177","source":"kapt","households":176}},{"type":"Feature","geometry":{"type":"Point","coordinates":[126.93111849927291,35.117891100855964]},"properties":{"id":"2911012600101470001-호반3차아파트","name":"호반3차아파트","kind":"아파트","pnu":"2911012600101470001","address":"전남광주통합특별시 동구 용산동 147-1","source":"kapt","households":190}},{"type":"Feature","geometry":{"type":"Point","coordinates":[126.9130934472254,35.149362482420585]},"properties":{"id":"2911013000100340000-광주충장고운라피네","name":"광주충장고운라피네","kind":"아파트","pnu":"2911013000100340000","address":"전남광주통합특별시 동구 충장로4가 34","source":"kapt","households":148}},{"type":"Feature","geometry":{"type":"Point","coordinates":[126.91452120887368,35.14995783812948]},"properties":{"id":"2911013000100140000-충장아트원","name":"충장아트원","kind":"아파트","pnu":"2911013000100140000","address":"전남광주통합특별시 동구 충장로4가 14","source":"kapt","households":265}},{"type":"Feature","geometry":{"type":"Point","coordinates":[126.91148660941488,35.14933842798485]},"properties":{"id":"2911010400100680001-금남로 유탑유블레스 원시티","name":"금남로 유탑유블레스 원시티","kind":"오피스텔","pnu":"2911010400100680001","address":"전남광주통합특별시 동구 수기동 68-1","source":"extra","households":480}},{"type":"Feature","geometry":{"type":"Point","coordinates":[126.92198832675797,35.16173829798858]},"properties":{"id":"2911010900101250000-교대역 모아엘가 그랑데","name":"교대역 모아엘가 그랑데","kind":"아파트","pnu":"2911010900101250000","address":"전남광주통합특별시 동구 계림동 125","source":"extra","households":815}},{"type":"Feature","geometry":{"type":"Point","coordinates":[126.92907845708247,35.15822393223951]},"properties":{"id":"2911011000104630012-공무원아파트","name":"공무원아파트","kind":"아파트","pnu":"2911011000104630012","address":"전남광주통합특별시 동구 산수동 463-12","source":"odcloud","households":60}},{"type":"Feature","geometry":{"type":"Point","coordinates":[126.91699949410962,35.149785303829304]},"properties":{"id":"2911013300100030007-금남맨션","name":"금남맨션","kind":"아파트","pnu":"2911013300100030007","address":"전남광주통합특별시 동구 금남로3가 3-7","source":"odcloud","households":48}},{"type":"Feature","geometry":{"type":"Point","coordinates":[126.91729583116842,35.14808454272402]},"properties":{"id":"2911013200100350000-무등맨션","name":"무등맨션","kind":"아파트","pnu":"2911013200100350000","address":"전남광주통합특별시 동구 금남로2가 35","source":"odcloud","households":49}},{"type":"Feature","geometry":{"type":"Point","coordinates":[126.9360466528174,35.13078853915705]},"properties":{"id":"2911011900107170001-수정맨션","name":"수정맨션","kind":"아파트","pnu":"2911011900107170001","address":"전남광주통합특별시 동구 소태동 717-1","source":"odcloud","households":76}},{"type":"Feature","geometry":{"type":"Point","coordinates":[126.93206266130848,35.16026033895285]},"properties":{"id":"2911011000101280001-신양맨션","name":"신양맨션","kind":"아파트","pnu":"2911011000101280001","address":"전남광주통합특별시 동구 산수동 128-1","source":"odcloud","households":27}},{"type":"Feature","geometry":{"type":"Point","coordinates":[126.93822029825984,35.1481536353969]},"properties":{"id":"2911011100102230001-지산아파트","name":"지산아파트","kind":"아파트","pnu":"2911011100102230001","address":"전남광주통합특별시 동구 지산동 223-1","source":"odcloud","households":25}},{"type":"Feature","geometry":{"type":"Point","coordinates":[126.9371039042642,35.13290308237072]},"properties":{"id":"2911012100108680000-이화주택","name":"이화주택","kind":"아파트","pnu":"2911012100108680000","address":"전남광주통합특별시 동구 운림동 868","source":"odcloud","households":20}},{"type":"Feature","geometry":{"type":"Point","coordinates":[126.93731505450617,35.15114368070651]},"properties":{"id":"2911011100103160007-동산아파트","name":"동산아파트","kind":"아파트","pnu":"2911011100103160007","address":"전남광주통합특별시 동구 지산동 316-7","source":"odcloud","households":66}},{"type":"Feature","geometry":{"type":"Point","coordinates":[126.93218115656965,35.12083521977024]},"properties":{"id":"2911012600106360137-용산아파트","name":"용산아파트","kind":"아파트","pnu":"2911012600106360137","address":"전남광주통합특별시 동구 용산동 636-137","source":"odcloud","households":65}},{"type":"Feature","geometry":{"type":"Point","coordinates":[126.93307777438059,35.147631893817376]},"properties":{"id":"2911011100106910003-이화아파트","name":"이화아파트","kind":"아파트","pnu":"2911011100106910003","address":"전남광주통합특별시 동구 지산동 691-3","source":"odcloud","households":24}},{"type":"Feature","geometry":{"type":"Point","coordinates":[126.9346608296739,35.12635263761466]},"properties":{"id":"2911011900106180000-백조아파트","name":"백조아파트","kind":"아파트","pnu":"2911011900106180000","address":"전남광주통합특별시 동구 소태동 618","source":"odcloud","households":70}},{"type":"Feature","geometry":{"type":"Point","coordinates":[126.93437797140368,35.129230215696424]},"properties":{"id":"2911011900107090000-진양아파트","name":"진양아파트","kind":"아파트","pnu":"2911011900107090000","address":"전남광주통합특별시 동구 소태동 709","source":"odcloud","households":57}},{"type":"Feature","geometry":{"type":"Point","coordinates":[126.93637912249463,35.1471974928251]},"properties":{"id":"2911011100101870001-푸른맨션","name":"푸른맨션","kind":"아파트","pnu":"2911011100101870001","address":"전남광주통합특별시 동구 지산동 187-1","source":"odcloud","households":80}},{"type":"Feature","geometry":{"type":"Point","coordinates":[126.93755621861388,35.150665467185135]},"properties":{"id":"2911011100103150024-이화맨션","name":"이화맨션","kind":"아파트","pnu":"2911011100103150024","address":"전남광주통합특별시 동구 지산동 315-24","source":"odcloud","households":100}},{"type":"Feature","geometry":{"type":"Point","coordinates":[126.92715245686617,35.150677951573684]},"properties":{"id":"2911010800101540093-동명맨션","name":"동명맨션","kind":"아파트","pnu":"2911010800101540093","address":"전남광주통합특별시 동구 동명동 154-93","source":"odcloud","households":24}},{"type":"Feature","geometry":{"type":"Point","coordinates":[126.92893798229159,35.15570322188391]},"properties":{"id":"2911011000105520017-산수맨션","name":"산수맨션","kind":"아파트","pnu":"2911011000105520017","address":"전남광주통합특별시 동구 산수동 552-17","source":"odcloud","households":38}},{"type":"Feature","geometry":{"type":"Point","coordinates":[126.93671030501969,35.153041257034204]},"properties":{"id":"2911011000100250000-명성맨션","name":"명성맨션","kind":"아파트","pnu":"2911011000100250000","address":"전남광주통합특별시 동구 산수동 25","source":"odcloud","households":80}},{"type":"Feature","geometry":{"type":"Point","coordinates":[126.92849297779503,35.158852493919944]},"properties":{"id":"2911011000104630006-동진맨션","name":"동진맨션","kind":"아파트","pnu":"2911011000104630006","address":"전남광주통합특별시 동구 산수동 463-6","source":"odcloud","households":121}},{"type":"Feature","geometry":{"type":"Point","coordinates":[126.93424618428247,35.12706413017622]},"properties":{"id":"2911011900105600011-신흥맨션","name":"신흥맨션","kind":"아파트","pnu":"2911011900105600011","address":"전남광주통합특별시 동구 소태동 560-11","source":"odcloud","households":48}},{"type":"Feature","geometry":{"type":"Point","coordinates":[126.93541146173843,35.12162246702278]},"properties":{"id":"2911011900102230000-대명아파트","name":"대명아파트","kind":"아파트","pnu":"2911011900102230000","address":"전남광주통합특별시 동구 소태동 223","source":"odcloud","households":111}},{"type":"Feature","geometry":{"type":"Point","coordinates":[126.93801536085765,35.1541612779929]},"properties":{"id":"2911011000100120000-동산로얄","name":"동산로얄","kind":"아파트","pnu":"2911011000100120000","address":"전남광주통합특별시 동구 산수동 12","source":"odcloud","households":143}},{"type":"Feature","geometry":{"type":"Point","coordinates":[126.92299793581108,35.15304920368136]},"properties":{"id":"2911010800102070088-동명파크맨션","name":"동명파크맨션","kind":"아파트","pnu":"2911010800102070088","address":"전남광주통합특별시 동구 동명동 207-88","source":"odcloud","households":24}},{"type":"Feature","geometry":{"type":"Point","coordinates":[126.92794687902241,35.12865183141531]},"properties":{"id":"2911011900109110000-우영타워","name":"우영타워","kind":"아파트","pnu":"2911011900109110000","address":"전남광주통합특별시 동구 소태동 911","source":"odcloud","households":70}},{"type":"Feature","geometry":{"type":"Point","coordinates":[126.93352387561237,35.158127927049485]},"properties":{"id":"2911011000102400014-해광맨션","name":"해광맨션","kind":"아파트","pnu":"2911011000102400014","address":"전남광주통합특별시 동구 산수동 240-14","source":"odcloud","households":55}},{"type":"Feature","geometry":{"type":"Point","coordinates":[126.93621496229139,35.123817186963535]},"properties":{"id":"2911011900104400000-대아102동","name":"대아102동","kind":"아파트","pnu":"2911011900104400000","address":"전남광주통합특별시 동구 소태동 440","source":"odcloud","households":95}},{"type":"Feature","geometry":{"type":"Point","coordinates":[126.94110653833351,35.13249996617161]},"properties":{"id":"2911012100106280000-무등파크3차","name":"무등파크3차","kind":"아파트","pnu":"2911012100106280000","address":"전남광주통합특별시 동구 운림동 628","source":"odcloud","households":72}},{"type":"Feature","geometry":{"type":"Point","coordinates":[126.93416087709335,35.12563361080814]},"properties":{"id":"2911011900106150001-소태1차진아하이빌","name":"소태1차진아하이빌","kind":"아파트","pnu":"2911011900106150001","address":"전남광주통합특별시 동구 소태동 615-1","source":"odcloud","households":74}},{"type":"Feature","geometry":{"type":"Point","coordinates":[126.93864651051874,35.14761053393973]},"properties":{"id":"2911011100101980013-지산진아하이빌","name":"지산진아하이빌","kind":"아파트","pnu":"2911011100101980013","address":"전남광주통합특별시 동구 지산동 198-13","source":"odcloud","households":60}},{"type":"Feature","geometry":{"type":"Point","coordinates":[126.9368893301275,35.15207513363113]},"properties":{"id":"2911011100103170033-제일맨션","name":"제일맨션","kind":"아파트","pnu":"2911011100103170033","address":"전남광주통합특별시 동구 지산동 317-33","source":"odcloud","households":110}},{"type":"Feature","geometry":{"type":"Point","coordinates":[126.9452508741139,35.132595898623435]},"properties":{"id":"2911012100106890000-글로벌아파트","name":"글로벌아파트","kind":"아파트","pnu":"2911012100106890000","address":"전남광주통합특별시 동구 운림동 689","source":"odcloud","households":72}},{"type":"Feature","geometry":{"type":"Point","coordinates":[126.94096624067599,35.13477369732159]},"properties":{"id":"2911012100105980000-남해오네뜨빌","name":"남해오네뜨빌","kind":"아파트","pnu":"2911012100105980000","address":"전남광주통합특별시 동구 운림동 598","source":"odcloud","households":58}},{"type":"Feature","geometry":{"type":"Point","coordinates":[126.93410535139525,35.134485430417385]},"properties":{"id":"2911012200107130001-대주피오레-힐즈","name":"대주피오레-힐즈","kind":"아파트","pnu":"2911012200107130001","address":"전남광주통합특별시 동구 학동 713-1","source":"odcloud","households":76}},{"type":"Feature","geometry":{"type":"Point","coordinates":[126.90932234752877,35.15081699802914]},"properties":{"id":"2911010400100220000-수기동고운하이츠","name":"수기동고운하이츠","kind":"아파트","pnu":"2911010400100220000","address":"전남광주통합특별시 동구 수기동 22","source":"odcloud","households":88}},{"type":"Feature","geometry":{"type":"Point","coordinates":[126.92768091417759,35.1362711863078]},"properties":{"id":"2911012200106620034-학동 골든파티오","name":"학동 골든파티오","kind":"아파트","pnu":"2911012200106620034","address":"전남광주통합특별시 동구 학동 662-34","source":"odcloud","households":48}},{"type":"Feature","geometry":{"type":"Point","coordinates":[126.93424088629327,35.15834132947443]},"properties":{"id":"2911011000107120000-호두메마을","name":"호두메마을","kind":"아파트","pnu":"2911011000107120000","address":"전남광주통합특별시 동구 산수동 712","source":"odcloud","households":95}},{"type":"Feature","geometry":{"type":"Point","coordinates":[126.93262020001302,35.135357219818616]},"properties":{"id":"2911012200110210000-학동 모아미래도","name":"학동 모아미래도","kind":"아파트","pnu":"2911012200110210000","address":"전남광주통합특별시 동구 학동 1021","source":"odcloud","households":48}},{"type":"Feature","geometry":{"type":"Point","coordinates":[126.94087204470571,35.13085041670842]},"properties":{"id":"2911011900111080000-무등산수안채휴","name":"무등산수안채휴","kind":"아파트","pnu":"2911011900111080000","address":"전남광주통합특별시 동구 소태동 1108","source":"odcloud","households":84}},{"type":"Feature","geometry":{"type":"Point","coordinates":[126.90994486650737,35.15115229208588]},"properties":{"id":"2911010400100430000-아트리뷰스","name":"아트리뷰스","kind":"도시형생활주택","pnu":"2911010400100430000","address":"전남광주통합특별시 동구 수기동 43","source":"bld","households":74}},{"type":"Feature","geometry":{"type":"Point","coordinates":[126.9195693854997,35.15234309540733]},"properties":{"id":"2911010700100230000-장동 도시형생활주택","name":"장동 도시형생활주택","kind":"연립","pnu":"2911010700100230000","address":"전남광주통합특별시 동구 장동 23","source":"bld","households":48}},{"type":"Feature","geometry":{"type":"Point","coordinates":[126.9292442046384,35.15030436974271]},"properties":{"id":"2911010800100180002-골든시티빌","name":"골든시티빌","kind":"다세대","pnu":"2911010800100180002","address":"전남광주통합특별시 동구 동명동 18-2","source":"bld","households":24}},{"type":"Feature","geometry":{"type":"Point","coordinates":[126.92956550844693,35.15041918751703]},"properties":{"id":"2911010800100180016-(18-16)","name":"(18-16)","kind":"다세대","pnu":"2911010800100180016","address":"전남광주통합특별시 동구 동명동 18-16","source":"bld","households":18}},{"type":"Feature","geometry":{"type":"Point","coordinates":[126.92367957769963,35.16223875385434]},"properties":{"id":"2911010900101160010-계림동 116-10  도시형생활주택(소형주택)","name":"계림동 116-10  도시형생활주택(소형주택)","kind":"도시형생활주택","pnu":"2911010900101160010","address":"전남광주통합특별시 동구 계림동 116-10","source":"bld","households":25}},{"type":"Feature","geometry":{"type":"Point","coordinates":[126.92024085697048,35.15974665580947]},"properties":{"id":"2911010900101750007-SG빌리지","name":"SG빌리지","kind":"오피스텔","pnu":"2911010900101750007","address":"전남광주통합특별시 동구 계림동 175-7","source":"bld","households":56}},{"type":"Feature","geometry":{"type":"Point","coordinates":[126.9410032522238,35.14842106365557]},"properties":{"id":"2911011100100920001-이안 리츠빌","name":"이안 리츠빌","kind":"연립","pnu":"2911011100100920001","address":"전남광주통합특별시 동구 지산동 92-1","source":"bld","households":16}},{"type":"Feature","geometry":{"type":"Point","coordinates":[126.9168530949402,35.1446029961146]},"properties":{"id":"2911011400100350003-구시청원룸","name":"구시청원룸","kind":"다세대","pnu":"2911011400100350003","address":"전남광주통합특별시 동구 금동 35-3","source":"bld","households":16}},{"type":"Feature","geometry":{"type":"Point","coordinates":[126.9256016938499,35.14585635226436]},"properties":{"id":"2911011800100080011-신도원룸","name":"신도원룸","kind":"다세대","pnu":"2911011800100080011","address":"전남광주통합특별시 동구 서석동 8-11","source":"bld","households":14}},{"type":"Feature","geometry":{"type":"Point","coordinates":[126.92401609489394,35.13917308010291]},"properties":{"id":"2911012200100280001-(28-1)","name":"(28-1)","kind":"다세대","pnu":"2911012200100280001","address":"전남광주통합특별시 동구 학동 28-1","source":"bld","households":4}},{"type":"Feature","geometry":{"type":"Point","coordinates":[126.92444978034683,35.13857033419599]},"properties":{"id":"2911012200100290006-럭키하이빌","name":"럭키하이빌","kind":"다세대","pnu":"2911012200100290006","address":"전남광주통합특별시 동구 학동 29-6","source":"bld","households":15}},{"type":"Feature","geometry":{"type":"Point","coordinates":[126.92446042881794,35.13829360643477]},"properties":{"id":"2911012200100290010-대성하이빌","name":"대성하이빌","kind":"다세대","pnu":"2911012200100290010","address":"전남광주통합특별시 동구 학동 29-10","source":"bld","households":15}},{"type":"Feature","geometry":{"type":"Point","coordinates":[126.92459509246052,35.138292994959855]},"properties":{"id":"2911012200100290018-무등빌라","name":"무등빌라","kind":"다세대","pnu":"2911012200100290018","address":"전남광주통합특별시 동구 학동 29-18","source":"bld","households":16}},{"type":"Feature","geometry":{"type":"Point","coordinates":[126.9248707295161,35.138785676335075]},"properties":{"id":"2911012200100300003-남경빌라","name":"남경빌라","kind":"다세대","pnu":"2911012200100300003","address":"전남광주통합특별시 동구 학동 30-3","source":"bld","households":15}},{"type":"Feature","geometry":{"type":"Point","coordinates":[126.91613091408136,35.15196827683839]},"properties":{"id":"2911010100101530000-루체클래식","name":"루체클래식","kind":"도시형생활주택","pnu":"2911010100101530000","address":"전남광주통합특별시 동구 대인동 153","source":"bld","households":44}},{"type":"Feature","geometry":{"type":"Point","coordinates":[126.91159553553746,35.15182381521429]},"properties":{"id":"2911010200101160002-금나라빌","name":"금나라빌","kind":"오피스텔","pnu":"2911010200101160002","address":"전남광주통합특별시 동구 금남로5가 116-2","source":"bld","households":12}},{"type":"Feature","geometry":{"type":"Point","coordinates":[126.92213474857886,35.150308001835754]},"properties":{"id":"2911010700100560009-(56-9)","name":"(56-9)","kind":"다세대","pnu":"2911010700100560009","address":"전남광주통합특별시 동구 장동 56-9","source":"bld","households":4}},{"type":"Feature","geometry":{"type":"Point","coordinates":[126.92259973846423,35.14891062797509]},"properties":{"id":"2911010700100890002-대우빌라","name":"대우빌라","kind":"다세대","pnu":"2911010700100890002","address":"전남광주통합특별시 동구 장동 89-2","source":"bld","households":6}},{"type":"Feature","geometry":{"type":"Point","coordinates":[126.92533509437149,35.14949769099163]},"properties":{"id":"2911010800100720026-중앙빌라","name":"중앙빌라","kind":"다세대","pnu":"2911010800100720026","address":"전남광주통합특별시 동구 동명동 72-26","source":"bld","households":7}},{"type":"Feature","geometry":{"type":"Point","coordinates":[126.92895151093276,35.14832728006366]},"properties":{"id":"2911010800101010024-아진아트빌","name":"아진아트빌","kind":"다세대","pnu":"2911010800101010024","address":"전남광주통합특별시 동구 동명동 101-24","source":"bld","households":18}},{"type":"Feature","geometry":{"type":"Point","coordinates":[126.92918712275346,35.148316575948286]},"properties":{"id":"2911010800101010033-산하우스","name":"산하우스","kind":"다세대","pnu":"2911010800101010033","address":"전남광주통합특별시 동구 동명동 101-33","source":"bld","households":12}},{"type":"Feature","geometry":{"type":"Point","coordinates":[126.92493877585889,35.15016913399356]},"properties":{"id":"2911010800101540012-보보스클럽","name":"보보스클럽","kind":"다세대","pnu":"2911010800101540012","address":"전남광주통합특별시 동구 동명동 154-12","source":"bld","households":14}},{"type":"Feature","geometry":{"type":"Point","coordinates":[126.92422365092894,35.14999193403368]},"properties":{"id":"2911010800101540048-라인빌라","name":"라인빌라","kind":"다세대","pnu":"2911010800101540048","address":"전남광주통합특별시 동구 동명동 154-48","source":"bld","households":7}},{"type":"Feature","geometry":{"type":"Point","coordinates":[126.92406547149514,35.15003122865218]},"properties":{"id":"2911010800101540049-새동명빌라","name":"새동명빌라","kind":"다세대","pnu":"2911010800101540049","address":"전남광주통합특별시 동구 동명동 154-49","source":"bld","households":4}},{"type":"Feature","geometry":{"type":"Point","coordinates":[126.92576842828359,35.15123659309016]},"properties":{"id":"2911010800101590010-동명웰피아","name":"동명웰피아","kind":"다세대","pnu":"2911010800101590010","address":"전남광주통합특별시 동구 동명동 159-10","source":"bld","households":11}},{"type":"Feature","geometry":{"type":"Point","coordinates":[126.92540621348195,35.15237326464802]},"properties":{"id":"2911010800101790010-무등빌라","name":"무등빌라","kind":"다세대","pnu":"2911010800101790010","address":"전남광주통합특별시 동구 동명동 179-10","source":"bld","households":8}},{"type":"Feature","geometry":{"type":"Point","coordinates":[126.92300693895541,35.150791699826655]},"properties":{"id":"2911010800102000141-동명동 스튜던트빌리지","name":"동명동 스튜던트빌리지","kind":"다세대","pnu":"2911010800102000141","address":"전남광주통합특별시 동구 동명동 200-141","source":"bld","households":16}},{"type":"Feature","geometry":{"type":"Point","coordinates":[126.9233942666025,35.152676057890865]},"properties":{"id":"2911010800102000206-수도하이빌","name":"수도하이빌","kind":"다세대","pnu":"2911010800102000206","address":"전남광주통합특별시 동구 동명동 200-206","source":"bld","households":7}},{"type":"Feature","geometry":{"type":"Point","coordinates":[126.92403606702081,35.152922236997405]},"properties":{"id":"2911010800102070058-다세대","name":"다세대","kind":"다세대","pnu":"2911010800102070058","address":"전남광주통합특별시 동구 동명동 207-58","source":"bld","households":null}},{"type":"Feature","geometry":{"type":"Point","coordinates":[126.9235433066236,35.15296703817617]},"properties":{"id":"2911010800102070107-동명빌라","name":"동명빌라","kind":"연립","pnu":"2911010800102070107","address":"전남광주통합특별시 동구 동명동 207-107","source":"bld","households":9}},{"type":"Feature","geometry":{"type":"Point","coordinates":[126.92084214907169,35.152374607620075]},"properties":{"id":"2911010800102280021-동명동파르테논빌라","name":"동명동파르테논빌라","kind":"다세대","pnu":"2911010800102280021","address":"전남광주통합특별시 동구 동명동 228-21","source":"bld","households":18}},{"type":"Feature","geometry":{"type":"Point","coordinates":[126.92073026828442,35.159471767627096]},"properties":{"id":"2911010900101810009-고려원룸","name":"고려원룸","kind":"다세대","pnu":"2911010900101810009","address":"전남광주통합특별시 동구 계림동 181-9","source":"bld","households":15}},{"type":"Feature","geometry":{"type":"Point","coordinates":[126.91955874923778,35.15832834875303]},"properties":{"id":"2911010900102920008-연립주택","name":"연립주택","kind":"다세대","pnu":"2911010900102920008","address":"전남광주통합특별시 동구 계림동 292-8","source":"bld","households":6}},{"type":"Feature","geometry":{"type":"Point","coordinates":[126.91907919707623,35.156622707986116]},"properties":{"id":"2911010900102950023-(295-23)","name":"(295-23)","kind":"다세대","pnu":"2911010900102950023","address":"전남광주통합특별시 동구 계림동 295-23","source":"bld","households":5}},{"type":"Feature","geometry":{"type":"Point","coordinates":[126.91832230736026,35.15766300099334]},"properties":{"id":"2911010900104850046-대신스위트빌","name":"대신스위트빌","kind":"다세대","pnu":"2911010900104850046","address":"전남광주통합특별시 동구 계림동 485-46","source":"bld","households":17}},{"type":"Feature","geometry":{"type":"Point","coordinates":[126.9181118993998,35.157670064762996]},"properties":{"id":"2911010900104850047-도나우타워","name":"도나우타워","kind":"다세대","pnu":"2911010900104850047","address":"전남광주통합특별시 동구 계림동 485-47","source":"bld","households":3}},{"type":"Feature","geometry":{"type":"Point","coordinates":[126.91785857893521,35.15811337125592]},"properties":{"id":"2911010900104870028-로얄맨션","name":"로얄맨션","kind":"연립","pnu":"2911010900104870028","address":"전남광주통합특별시 동구 계림동 487-28","source":"bld","households":9}},{"type":"Feature","geometry":{"type":"Point","coordinates":[126.91725722510965,35.157539951023075]},"properties":{"id":"2911010900104890014-초록빌라","name":"초록빌라","kind":"다세대","pnu":"2911010900104890014","address":"전남광주통합특별시 동구 계림동 489-14","source":"bld","households":4}},{"type":"Feature","geometry":{"type":"Point","coordinates":[126.91741112073277,35.157668180362236]},"properties":{"id":"2911010900104890021-선경빌라","name":"선경빌라","kind":"다세대","pnu":"2911010900104890021","address":"전남광주통합특별시 동구 계림동 489-21","source":"bld","households":3}},{"type":"Feature","geometry":{"type":"Point","coordinates":[126.91732237855689,35.15778430860591]},"properties":{"id":"2911010900104890028-오크빌라","name":"오크빌라","kind":"다세대","pnu":"2911010900104890028","address":"전남광주통합특별시 동구 계림동 489-28","source":"bld","households":4}},{"type":"Feature","geometry":{"type":"Point","coordinates":[126.91805341743024,35.163140519800535]},"properties":{"id":"2911010900105550006-푸른마을","name":"푸른마을","kind":"도시형생활주택","pnu":"2911010900105550006","address":"전남광주통합특별시 동구 계림동 555-6","source":"bld","households":18}},{"type":"Feature","geometry":{"type":"Point","coordinates":[126.9182947730784,35.161423157892315]},"properties":{"id":"2911010900105620016-한우리빌","name":"한우리빌","kind":"다세대","pnu":"2911010900105620016","address":"전남광주통합특별시 동구 계림동 562-16","source":"bld","households":4}},{"type":"Feature","geometry":{"type":"Point","coordinates":[126.91838864228498,35.16139645213828]},"properties":{"id":"2911010900105620020-샛터빌","name":"샛터빌","kind":"다세대","pnu":"2911010900105620020","address":"전남광주통합특별시 동구 계림동 562-20","source":"bld","households":4}},{"type":"Feature","geometry":{"type":"Point","coordinates":[126.91963838214852,35.16059168121974]},"properties":{"id":"2911010900105650009-대신스위트빌","name":"대신스위트빌","kind":"다세대","pnu":"2911010900105650009","address":"전남광주통합특별시 동구 계림동 565-9","source":"bld","households":19}},{"type":"Feature","geometry":{"type":"Point","coordinates":[126.91922773347036,35.16020872458316]},"properties":{"id":"2911010900105710012-태광102동","name":"태광102동","kind":"다세대","pnu":"2911010900105710012","address":"전남광주통합특별시 동구 계림동 571-12","source":"bld","households":20}},{"type":"Feature","geometry":{"type":"Point","coordinates":[126.91931815484253,35.16017313601169]},"properties":{"id":"2911010900105710016-태광101동","name":"태광101동","kind":"다세대","pnu":"2911010900105710016","address":"전남광주통합특별시 동구 계림동 571-16","source":"bld","households":20}},{"type":"Feature","geometry":{"type":"Point","coordinates":[126.91968017405094,35.15910779011858]},"properties":{"id":"2911010900105780008-(578-8)","name":"(578-8)","kind":"다세대","pnu":"2911010900105780008","address":"전남광주통합특별시 동구 계림동 578-8","source":"bld","households":5}},{"type":"Feature","geometry":{"type":"Point","coordinates":[126.91745690255601,35.15877105032581]},"properties":{"id":"2911010900105830007-정원아트빌","name":"정원아트빌","kind":"다세대","pnu":"2911010900105830007","address":"전남광주통합특별시 동구 계림동 583-7","source":"bld","households":4}},{"type":"Feature","geometry":{"type":"Point","coordinates":[126.9179494184356,35.158776176010456]},"properties":{"id":"2911010900105840012-(584-12)","name":"(584-12)","kind":"다세대","pnu":"2911010900105840012","address":"전남광주통합특별시 동구 계림동 584-12","source":"bld","households":8}},{"type":"Feature","geometry":{"type":"Point","coordinates":[126.91791437702541,35.158427960017534]},"properties":{"id":"2911010900105850014-삼정파크빌","name":"삼정파크빌","kind":"다세대","pnu":"2911010900105850014","address":"전남광주통합특별시 동구 계림동 585-14","source":"bld","households":12}},{"type":"Feature","geometry":{"type":"Point","coordinates":[126.93768344343647,35.15602378675018]},"properties":{"id":"2911011000100870006-산수동 파크빌","name":"산수동 파크빌","kind":"다세대","pnu":"2911011000100870006","address":"전남광주통합특별시 동구 산수동 87-6","source":"bld","households":15}},{"type":"Feature","geometry":{"type":"Point","coordinates":[126.93766377419041,35.15620696207401]},"properties":{"id":"2911011000100910006-(91-6)","name":"(91-6)","kind":"연립","pnu":"2911011000100910006","address":"전남광주통합특별시 동구 산수동 91-6","source":"bld","households":12}},{"type":"Feature","geometry":{"type":"Point","coordinates":[126.93272500923439,35.15794395565491]},"properties":{"id":"2911011000102270021-주석빌라B동","name":"주석빌라B동","kind":"다세대","pnu":"2911011000102270021","address":"전남광주통합특별시 동구 산수동 227-21","source":"bld","households":7}},{"type":"Feature","geometry":{"type":"Point","coordinates":[126.92431137480573,35.1544936544208]},"properties":{"id":"2911011000103710002-녹색빌라","name":"녹색빌라","kind":"다세대","pnu":"2911011000103710002","address":"전남광주통합특별시 동구 산수동 371-2","source":"bld","households":6}},{"type":"Feature","geometry":{"type":"Point","coordinates":[126.92414015162214,35.15502777107781]},"properties":{"id":"2911011000103720004-행복가득","name":"행복가득","kind":"다세대","pnu":"2911011000103720004","address":"전남광주통합특별시 동구 산수동 372-4","source":"bld","households":15}},{"type":"Feature","geometry":{"type":"Point","coordinates":[126.924196170237,35.154835394875484]},"properties":{"id":"2911011000103720005-깨보니그대빌","name":"깨보니그대빌","kind":"다세대","pnu":"2911011000103720005","address":"전남광주통합특별시 동구 산수동 372-5","source":"bld","households":12}},{"type":"Feature","geometry":{"type":"Point","coordinates":[126.92705479177081,35.154657288307035]},"properties":{"id":"2911011000103920002-태인빌라","name":"태인빌라","kind":"다세대","pnu":"2911011000103920002","address":"전남광주통합특별시 동구 산수동 392-2","source":"bld","households":19}},{"type":"Feature","geometry":{"type":"Point","coordinates":[126.92758814833742,35.15511242521938]},"properties":{"id":"2911011000104010022-해주빌리지","name":"해주빌리지","kind":"다세대","pnu":"2911011000104010022","address":"전남광주통합특별시 동구 산수동 401-22","source":"bld","households":12}},{"type":"Feature","geometry":{"type":"Point","coordinates":[126.9274253686095,35.15513136231668]},"properties":{"id":"2911011000104010023-해주빌리지","name":"해주빌리지","kind":"다세대","pnu":"2911011000104010023","address":"전남광주통합특별시 동구 산수동 401-23","source":"bld","households":12}},{"type":"Feature","geometry":{"type":"Point","coordinates":[126.92749698127761,35.15500144834763]},"properties":{"id":"2911011000104010024-해주빌리지","name":"해주빌리지","kind":"다세대","pnu":"2911011000104010024","address":"전남광주통합특별시 동구 산수동 401-24","source":"bld","households":12}},{"type":"Feature","geometry":{"type":"Point","coordinates":[126.92730775538257,35.15497441450144]},"properties":{"id":"2911011000104010027-화이트빌라","name":"화이트빌라","kind":"다세대","pnu":"2911011000104010027","address":"전남광주통합특별시 동구 산수동 401-27","source":"bld","households":16}},{"type":"Feature","geometry":{"type":"Point","coordinates":[126.92710680509414,35.15492568150033]},"properties":{"id":"2911011000104060010-한솔","name":"한솔","kind":"다세대","pnu":"2911011000104060010","address":"전남광주통합특별시 동구 산수동 406-10","source":"bld","households":19}},{"type":"Feature","geometry":{"type":"Point","coordinates":[126.92739923295002,35.156851574237]},"properties":{"id":"2911011000104240004-귀성빌라","name":"귀성빌라","kind":"다세대","pnu":"2911011000104240004","address":"전남광주통합특별시 동구 산수동 424-4","source":"bld","households":8}},{"type":"Feature","geometry":{"type":"Point","coordinates":[126.92740463136974,35.15633970708966]},"properties":{"id":"2911011000104250020-(425-20)","name":"(425-20)","kind":"다세대","pnu":"2911011000104250020","address":"전남광주통합특별시 동구 산수동 425-20","source":"bld","households":7}},{"type":"Feature","geometry":{"type":"Point","coordinates":[126.92718398529772,35.15586642996769]},"properties":{"id":"2911011000104260014-백제","name":"백제","kind":"다세대","pnu":"2911011000104260014","address":"전남광주통합특별시 동구 산수동 426-14","source":"bld","households":14}},{"type":"Feature","geometry":{"type":"Point","coordinates":[126.9270963451425,35.15608181504642]},"properties":{"id":"2911011000104260017-채림빌라","name":"채림빌라","kind":"다세대","pnu":"2911011000104260017","address":"전남광주통합특별시 동구 산수동 426-17","source":"bld","households":12}},{"type":"Feature","geometry":{"type":"Point","coordinates":[126.92698923535082,35.156478472865146]},"properties":{"id":"2911011000104260024-산수동다세대주택","name":"산수동다세대주택","kind":"다세대","pnu":"2911011000104260024","address":"전남광주통합특별시 동구 산수동 426-24","source":"bld","households":4}},{"type":"Feature","geometry":{"type":"Point","coordinates":[126.92735403880316,35.15600145826183]},"properties":{"id":"2911011000104260034-해뜨는집","name":"해뜨는집","kind":"다세대","pnu":"2911011000104260034","address":"전남광주통합특별시 동구 산수동 426-34","source":"bld","households":8}},{"type":"Feature","geometry":{"type":"Point","coordinates":[126.92723559022701,35.15611467995157]},"properties":{"id":"2911011000104260035-채림빌라","name":"채림빌라","kind":"다세대","pnu":"2911011000104260035","address":"전남광주통합특별시 동구 산수동 426-35","source":"bld","households":12}},{"type":"Feature","geometry":{"type":"Point","coordinates":[126.92685159918246,35.156044675410186]},"properties":{"id":"2911011000104280001-00다세대주택","name":"00다세대주택","kind":"다세대","pnu":"2911011000104280001","address":"전남광주통합특별시 동구 산수동 428-1","source":"bld","households":8}},{"type":"Feature","geometry":{"type":"Point","coordinates":[126.92685246568965,35.1561862413743]},"properties":{"id":"2911011000104280005-보헤미안빌라","name":"보헤미안빌라","kind":"다세대","pnu":"2911011000104280005","address":"전남광주통합특별시 동구 산수동 428-5","source":"bld","households":8}},{"type":"Feature","geometry":{"type":"Point","coordinates":[126.92812598086373,35.159004879973395]},"properties":{"id":"2911011000104630005-공무원아파트","name":"공무원아파트","kind":"연립","pnu":"2911011000104630005","address":"전남광주통합특별시 동구 산수동 463-5","source":"bld","households":16}},{"type":"Feature","geometry":{"type":"Point","coordinates":[126.92917523952048,35.15890890407747]},"properties":{"id":"2911011000104630008-(463-8)","name":"(463-8)","kind":"연립","pnu":"2911011000104630008","address":"전남광주통합특별시 동구 산수동 463-8","source":"bld","households":9}},{"type":"Feature","geometry":{"type":"Point","coordinates":[126.92937011562984,35.1586354032991]},"properties":{"id":"2911011000104630009-공무원아파트","name":"공무원아파트","kind":"다세대","pnu":"2911011000104630009","address":"전남광주통합특별시 동구 산수동 463-9","source":"bld","households":12}},{"type":"Feature","geometry":{"type":"Point","coordinates":[126.92402959947187,35.15541560019891]},"properties":{"id":"2911011000104800002-황금빌라","name":"황금빌라","kind":"다세대","pnu":"2911011000104800002","address":"전남광주통합특별시 동구 산수동 480-2","source":"bld","households":8}},{"type":"Feature","geometry":{"type":"Point","coordinates":[126.924058219888,35.15512943783645]},"properties":{"id":"2911011000104800004-산수빌리지A동","name":"산수빌리지A동","kind":"다세대","pnu":"2911011000104800004","address":"전남광주통합특별시 동구 산수동 480-4","source":"bld","households":15}},{"type":"Feature","geometry":{"type":"Point","coordinates":[126.92385177116488,35.15533049599203]},"properties":{"id":"2911011000104800007-산호하이빌","name":"산호하이빌","kind":"다세대","pnu":"2911011000104800007","address":"전남광주통합특별시 동구 산수동 480-7","source":"bld","households":8}},{"type":"Feature","geometry":{"type":"Point","coordinates":[126.92388247842183,35.15524023429465]},"properties":{"id":"2911011000104800008-산수빌리지C동","name":"산수빌리지C동","kind":"다세대","pnu":"2911011000104800008","address":"전남광주통합특별시 동구 산수동 480-8","source":"bld","households":16}},{"type":"Feature","geometry":{"type":"Point","coordinates":[126.92388445362468,35.15511409443246]},"properties":{"id":"2911011000104800015-산수빌리지B동","name":"산수빌리지B동","kind":"다세대","pnu":"2911011000104800015","address":"전남광주통합특별시 동구 산수동 480-15","source":"bld","households":19}},{"type":"Feature","geometry":{"type":"Point","coordinates":[126.92342754851435,35.155200825650155]},"properties":{"id":"2911011000104820004-(482-4)","name":"(482-4)","kind":"다세대","pnu":"2911011000104820004","address":"전남광주통합특별시 동구 산수동 482-4","source":"bld","households":4}},{"type":"Feature","geometry":{"type":"Point","coordinates":[126.92329696760333,35.15597319975555]},"properties":{"id":"2911011000104830005-대창빌라","name":"대창빌라","kind":"다세대","pnu":"2911011000104830005","address":"전남광주통합특별시 동구 산수동 483-5","source":"bld","households":10}},{"type":"Feature","geometry":{"type":"Point","coordinates":[126.92329915974398,35.15585876405838]},"properties":{"id":"2911011000104830006-대창하이빌","name":"대창하이빌","kind":"다세대","pnu":"2911011000104830006","address":"전남광주통합특별시 동구 산수동 483-6","source":"bld","households":12}},{"type":"Feature","geometry":{"type":"Point","coordinates":[126.92309646552592,35.15542910130708]},"properties":{"id":"2911011000104900002-대창그린빌","name":"대창그린빌","kind":"다세대","pnu":"2911011000104900002","address":"전남광주통합특별시 동구 산수동 490-2","source":"bld","households":12}},{"type":"Feature","geometry":{"type":"Point","coordinates":[126.93570003553191,35.15625908524001]},"properties":{"id":"2911011000105090004-아이린","name":"아이린","kind":"다세대","pnu":"2911011000105090004","address":"전남광주통합특별시 동구 산수동 509-4","source":"bld","households":9}},{"type":"Feature","geometry":{"type":"Point","coordinates":[126.93253007926464,35.15422765267725]},"properties":{"id":"2911011000105220083-나이스빌","name":"나이스빌","kind":"다세대","pnu":"2911011000105220083","address":"전남광주통합특별시 동구 산수동 522-83","source":"bld","households":25}},{"type":"Feature","geometry":{"type":"Point","coordinates":[126.93157095705766,35.1596094527887]},"properties":{"id":"2911011000105370021-프린스베스트빌","name":"프린스베스트빌","kind":"다세대","pnu":"2911011000105370021","address":"전남광주통합특별시 동구 산수동 537-21","source":"bld","households":19}},{"type":"Feature","geometry":{"type":"Point","coordinates":[126.93193056509269,35.15813657764394]},"properties":{"id":"2911011000105380022-피닉스베스트빌","name":"피닉스베스트빌","kind":"다세대","pnu":"2911011000105380022","address":"전남광주통합특별시 동구 산수동 538-22","source":"bld","households":15}},{"type":"Feature","geometry":{"type":"Point","coordinates":[126.93054921819684,35.158391796790525]},"properties":{"id":"2911011000105420010-(542-10)","name":"(542-10)","kind":"다세대","pnu":"2911011000105420010","address":"전남광주통합특별시 동구 산수동 542-10","source":"bld","households":16}},{"type":"Feature","geometry":{"type":"Point","coordinates":[126.93016019432815,35.1598558844553]},"properties":{"id":"2911011000105430024-산수아트빌","name":"산수아트빌","kind":"다세대","pnu":"2911011000105430024","address":"전남광주통합특별시 동구 산수동 543-24","source":"bld","households":13}},{"type":"Feature","geometry":{"type":"Point","coordinates":[126.92983243791818,35.15849580463992]},"properties":{"id":"2911011000105460017-금빛하우스","name":"금빛하우스","kind":"다세대","pnu":"2911011000105460017","address":"전남광주통합특별시 동구 산수동 546-17","source":"bld","households":15}},{"type":"Feature","geometry":{"type":"Point","coordinates":[126.9298733417748,35.1568920782944]},"properties":{"id":"2911011000105490010-충장맨션","name":"충장맨션","kind":"연립","pnu":"2911011000105490010","address":"전남광주통합특별시 동구 산수동 549-10","source":"bld","households":6}},{"type":"Feature","geometry":{"type":"Point","coordinates":[126.92962642627958,35.157029307766976]},"properties":{"id":"2911011000105490011-(549-11)","name":"(549-11)","kind":"다세대","pnu":"2911011000105490011","address":"전남광주통합특별시 동구 산수동 549-11","source":"bld","households":4}},{"type":"Feature","geometry":{"type":"Point","coordinates":[126.92999741335746,35.15668914360014]},"properties":{"id":"2911011000105490023-(549-23)","name":"(549-23)","kind":"다세대","pnu":"2911011000105490023","address":"전남광주통합특별시 동구 산수동 549-23","source":"bld","households":8}},{"type":"Feature","geometry":{"type":"Point","coordinates":[126.94527464949915,35.14892482031931]},"properties":{"id":"2911011100101160004-더지산빌리 A동","name":"더지산빌리 A동","kind":"다세대","pnu":"2911011100101160004","address":"전남광주통합특별시 동구 지산동 116-4","source":"bld","households":3}},{"type":"Feature","geometry":{"type":"Point","coordinates":[126.93686376414425,35.14707472791372]},"properties":{"id":"2911011100101770007-연립","name":"연립","kind":"연립","pnu":"2911011100101770007","address":"전남광주통합특별시 동구 지산동 177-7","source":"bld","households":4}},{"type":"Feature","geometry":{"type":"Point","coordinates":[126.93608805390579,35.14686705723868]},"properties":{"id":"2911011100101780000-연립주택","name":"연립주택","kind":"다세대","pnu":"2911011100101780000","address":"전남광주통합특별시 동구 지산동 178","source":"bld","households":6}},{"type":"Feature","geometry":{"type":"Point","coordinates":[126.93542737299965,35.14758310741507]},"properties":{"id":"2911011100101870030-푸른빌라A동","name":"푸른빌라A동","kind":"다세대","pnu":"2911011100101870030","address":"전남광주통합특별시 동구 지산동 187-30","source":"bld","households":18}},{"type":"Feature","geometry":{"type":"Point","coordinates":[126.93558702698274,35.14757264145321]},"properties":{"id":"2911011100101870042-푸른빌라B동","name":"푸른빌라B동","kind":"다세대","pnu":"2911011100101870042","address":"전남광주통합특별시 동구 지산동 187-42","source":"bld","households":19}},{"type":"Feature","geometry":{"type":"Point","coordinates":[126.93933696591003,35.147061883721975]},"properties":{"id":"2911011100102010004-다세대","name":"다세대","kind":"다세대","pnu":"2911011100102010004","address":"전남광주통합특별시 동구 지산동 201-4","source":"bld","households":null}},{"type":"Feature","geometry":{"type":"Point","coordinates":[126.93565039505471,35.14813228711781]},"properties":{"id":"2911011100102320025-(232-25)","name":"(232-25)","kind":"다세대","pnu":"2911011100102320025","address":"전남광주통합특별시 동구 지산동 232-25","source":"bld","households":4}},{"type":"Feature","geometry":{"type":"Point","coordinates":[126.93554393360921,35.148144505349634]},"properties":{"id":"2911011100102320026-민들레빌","name":"민들레빌","kind":"다세대","pnu":"2911011100102320026","address":"전남광주통합특별시 동구 지산동 232-26","source":"bld","households":6}},{"type":"Feature","geometry":{"type":"Point","coordinates":[126.93543834978782,35.14816053619934]},"properties":{"id":"2911011100102320027-코스모스빌","name":"코스모스빌","kind":"다세대","pnu":"2911011100102320027","address":"전남광주통합특별시 동구 지산동 232-27","source":"bld","households":6}},{"type":"Feature","geometry":{"type":"Point","coordinates":[126.93611893290071,35.14806257376259]},"properties":{"id":"2911011100102320038-대온빌라","name":"대온빌라","kind":"다세대","pnu":"2911011100102320038","address":"전남광주통합특별시 동구 지산동 232-38","source":"bld","households":4}},{"type":"Feature","geometry":{"type":"Point","coordinates":[126.935838451628,35.148312226463474]},"properties":{"id":"2911011100102320053-보금빌라","name":"보금빌라","kind":"다세대","pnu":"2911011100102320053","address":"전남광주통합특별시 동구 지산동 232-53","source":"bld","households":7}},{"type":"Feature","geometry":{"type":"Point","coordinates":[126.93954661680168,35.14881147632377]},"properties":{"id":"2911011100102890000-지산동천원룸","name":"지산동천원룸","kind":"다세대","pnu":"2911011100102890000","address":"전남광주통합특별시 동구 지산동 289","source":"bld","households":19}},{"type":"Feature","geometry":{"type":"Point","coordinates":[126.93956830319965,35.14869675070147]},"properties":{"id":"2911011100102900001-덕정하이빌","name":"덕정하이빌","kind":"다세대","pnu":"2911011100102900001","address":"전남광주통합특별시 동구 지산동 290-1","source":"bld","households":16}},{"type":"Feature","geometry":{"type":"Point","coordinates":[126.93936180355428,35.148471155197505]},"properties":{"id":"2911011100102920000-해피빌라","name":"해피빌라","kind":"다세대","pnu":"2911011100102920000","address":"전남광주통합특별시 동구 지산동 292","source":"bld","households":8}},{"type":"Feature","geometry":{"type":"Point","coordinates":[126.9386094972727,35.149823064488515]},"properties":{"id":"2911011100103100007-덕정빌라2","name":"덕정빌라2","kind":"다세대","pnu":"2911011100103100007","address":"전남광주통합특별시 동구 지산동 310-7","source":"bld","households":12}},{"type":"Feature","geometry":{"type":"Point","coordinates":[126.93715134114916,35.15129728788051]},"properties":{"id":"2911011100103160001-동산아파트","name":"동산아파트","kind":"연립","pnu":"2911011100103160001","address":"전남광주통합특별시 동구 지산동 316-1","source":"bld","households":16}},{"type":"Feature","geometry":{"type":"Point","coordinates":[126.93361264226769,35.151830885787064]},"properties":{"id":"2911011100103420038-스마트빌라","name":"스마트빌라","kind":"도시형생활주택","pnu":"2911011100103420038","address":"전남광주통합특별시 동구 지산동 342-38","source":"bld","households":24}},{"type":"Feature","geometry":{"type":"Point","coordinates":[126.9297278032353,35.15069060065652]},"properties":{"id":"2911011100103940006-충장맨션","name":"충장맨션","kind":"연립","pnu":"2911011100103940006","address":"전남광주통합특별시 동구 지산동 394-6","source":"bld","households":18}},{"type":"Feature","geometry":{"type":"Point","coordinates":[126.93109031257652,35.14979816190589]},"properties":{"id":"2911011100104140001-빛고을원룸","name":"빛고을원룸","kind":"다세대","pnu":"2911011100104140001","address":"전남광주통합특별시 동구 지산동 414-1","source":"bld","households":null}},{"type":"Feature","geometry":{"type":"Point","coordinates":[126.93109763398715,35.149713856549226]},"properties":{"id":"2911011100104140030-다우리원룸","name":"다우리원룸","kind":"다세대","pnu":"2911011100104140030","address":"전남광주통합특별시 동구 지산동 414-30","source":"bld","households":null}},{"type":"Feature","geometry":{"type":"Point","coordinates":[126.93404932480982,35.14852148601414]},"properties":{"id":"2911011100104300007-거원하이빌","name":"거원하이빌","kind":"다세대","pnu":"2911011100104300007","address":"전남광주통합특별시 동구 지산동 430-7","source":"bld","households":12}},{"type":"Feature","geometry":{"type":"Point","coordinates":[126.93414632283489,35.14881715026469]},"properties":{"id":"2911011100104310007-명진하이빌","name":"명진하이빌","kind":"다세대","pnu":"2911011100104310007","address":"전남광주통합특별시 동구 지산동 431-7","source":"bld","households":6}},{"type":"Feature","geometry":{"type":"Point","coordinates":[126.93345791403367,35.14819570183735]},"properties":{"id":"2911011100104470013-지산스카이빌","name":"지산스카이빌","kind":"다세대","pnu":"2911011100104470013","address":"전남광주통합특별시 동구 지산동 447-13","source":"bld","households":12}},{"type":"Feature","geometry":{"type":"Point","coordinates":[126.932546901562,35.149090436026725]},"properties":{"id":"2911011100104480033-보보스오피스텔","name":"보보스오피스텔","kind":"오피스텔","pnu":"2911011100104480033","address":"전남광주통합특별시 동구 지산동 448-33","source":"bld","households":29}},{"type":"Feature","geometry":{"type":"Point","coordinates":[126.93366208230552,35.14811626597422]},"properties":{"id":"2911011100104520002-준빌라","name":"준빌라","kind":"다세대","pnu":"2911011100104520002","address":"전남광주통합특별시 동구 지산동 452-2","source":"bld","households":6}},{"type":"Feature","geometry":{"type":"Point","coordinates":[126.93405656134442,35.14801573173612]},"properties":{"id":"2911011100104520003-도연","name":"도연","kind":"다세대","pnu":"2911011100104520003","address":"전남광주통합특별시 동구 지산동 452-3","source":"bld","households":19}},{"type":"Feature","geometry":{"type":"Point","coordinates":[126.93388481825336,35.148040346943475]},"properties":{"id":"2911011100104520004-쌍용하이빌","name":"쌍용하이빌","kind":"다세대","pnu":"2911011100104520004","address":"전남광주통합특별시 동구 지산동 452-4","source":"bld","households":19}},{"type":"Feature","geometry":{"type":"Point","coordinates":[126.93379593167711,35.14800685347056]},"properties":{"id":"2911011100104520009-지산동다세대주택","name":"지산동다세대주택","kind":"다세대","pnu":"2911011100104520009","address":"전남광주통합특별시 동구 지산동 452-9","source":"bld","households":13}},{"type":"Feature","geometry":{"type":"Point","coordinates":[126.93381585073021,35.14788139621453]},"properties":{"id":"2911011100104530011-정광하이빌","name":"정광하이빌","kind":"다세대","pnu":"2911011100104530011","address":"전남광주통합특별시 동구 지산동 453-11","source":"bld","households":10}},{"type":"Feature","geometry":{"type":"Point","coordinates":[126.93398368189183,35.14761921442431]},"properties":{"id":"2911011100104570002-미소빌라","name":"미소빌라","kind":"다세대","pnu":"2911011100104570002","address":"전남광주통합특별시 동구 지산동 457-2","source":"bld","households":14}},{"type":"Feature","geometry":{"type":"Point","coordinates":[126.93307124128745,35.14723334189382]},"properties":{"id":"2911011100104590001-조은힐스","name":"조은힐스","kind":"다세대","pnu":"2911011100104590001","address":"전남광주통합특별시 동구 지산동 459-1","source":"bld","households":19}},{"type":"Feature","geometry":{"type":"Point","coordinates":[126.93221894453863,35.147261854874955]},"properties":{"id":"2911011100104610013-정학채다세대주택","name":"정학채다세대주택","kind":"다세대","pnu":"2911011100104610013","address":"전남광주통합특별시 동구 지산동 461-13","source":"bld","households":11}},{"type":"Feature","geometry":{"type":"Point","coordinates":[126.93130830935921,35.1474819158865]},"properties":{"id":"2911011100104630011-연립주택","name":"연립주택","kind":"다세대","pnu":"2911011100104630011","address":"전남광주통합특별시 동구 지산동 463-11","source":"bld","households":4}},{"type":"Feature","geometry":{"type":"Point","coordinates":[126.93048496554874,35.14533014118423]},"properties":{"id":"2911011100105030004-내방원룸","name":"내방원룸","kind":"다세대","pnu":"2911011100105030004","address":"전남광주통합특별시 동구 지산동 503-4","source":"bld","households":20}},{"type":"Feature","geometry":{"type":"Point","coordinates":[126.92893611172991,35.14677420488226]},"properties":{"id":"2911011100105230004-(523-4)","name":"(523-4)","kind":"다세대","pnu":"2911011100105230004","address":"전남광주통합특별시 동구 지산동 523-4","source":"bld","households":15}},{"type":"Feature","geometry":{"type":"Point","coordinates":[126.93619004443357,35.14784488756602]},"properties":{"id":"2911011100106910011-이지빌라B동","name":"이지빌라B동","kind":"다세대","pnu":"2911011100106910011","address":"전남광주통합특별시 동구 지산동 691-11","source":"bld","households":8}},{"type":"Feature","geometry":{"type":"Point","coordinates":[126.93604246257411,35.14781414030078]},"properties":{"id":"2911011100106910012-이지빌라A동","name":"이지빌라A동","kind":"다세대","pnu":"2911011100106910012","address":"전남광주통합특별시 동구 지산동 691-12","source":"bld","households":16}},{"type":"Feature","geometry":{"type":"Point","coordinates":[126.93276548461526,35.14770192568401]},"properties":{"id":"2911011100106940008-나인빌","name":"나인빌","kind":"다세대","pnu":"2911011100106940008","address":"전남광주통합특별시 동구 지산동 694-8","source":"bld","households":19}},{"type":"Feature","geometry":{"type":"Point","coordinates":[126.93290021673255,35.14768659412588]},"properties":{"id":"2911011100106940049-(694-49)","name":"(694-49)","kind":"다세대","pnu":"2911011100106940049","address":"전남광주통합특별시 동구 지산동 694-49","source":"bld","households":8}},{"type":"Feature","geometry":{"type":"Point","coordinates":[126.93583965377981,35.153022463984286]},"properties":{"id":"2911011100107030013-지산팰리스","name":"지산팰리스","kind":"다세대","pnu":"2911011100107030013","address":"전남광주통합특별시 동구 지산동 703-13","source":"bld","households":4}},{"type":"Feature","geometry":{"type":"Point","coordinates":[126.93611646648459,35.15234492935443]},"properties":{"id":"2911011100107030017-조은집","name":"조은집","kind":"다세대","pnu":"2911011100107030017","address":"전남광주통합특별시 동구 지산동 703-17","source":"bld","households":9}},{"type":"Feature","geometry":{"type":"Point","coordinates":[126.93607305675064,35.1526197257265]},"properties":{"id":"2911011100107030029-(703-29)","name":"(703-29)","kind":"다세대","pnu":"2911011100107030029","address":"전남광주통합특별시 동구 지산동 703-29","source":"bld","households":4}},{"type":"Feature","geometry":{"type":"Point","coordinates":[126.93614689408474,35.153252611527286]},"properties":{"id":"2911011100107030047-(703-47)","name":"(703-47)","kind":"다세대","pnu":"2911011100107030047","address":"전남광주통합특별시 동구 지산동 703-47","source":"bld","households":9}},{"type":"Feature","geometry":{"type":"Point","coordinates":[126.93218522111015,35.15129051863247]},"properties":{"id":"2911011100107140009-현희원룸","name":"현희원룸","kind":"다세대","pnu":"2911011100107140009","address":"전남광주통합특별시 동구 지산동 714-9","source":"bld","households":16}},{"type":"Feature","geometry":{"type":"Point","coordinates":[126.93132917549666,35.15006006846679]},"properties":{"id":"2911011100107160043-주건축물 1동","name":"주건축물 1동","kind":"다세대","pnu":"2911011100107160043","address":"전남광주통합특별시 동구 지산동 716-43","source":"bld","households":18}},{"type":"Feature","geometry":{"type":"Point","coordinates":[126.93147540204865,35.151996128788056]},"properties":{"id":"2911011100107190011-지산동 719-11 공동주택 (박철영)","name":"지산동 719-11 공동주택 (박철영)","kind":"다세대","pnu":"2911011100107190011","address":"전남광주통합특별시 동구 지산동 719-11","source":"bld","households":18}},{"type":"Feature","geometry":{"type":"Point","coordinates":[126.9314370392792,35.15190001312564]},"properties":{"id":"2911011100107190012-지산동 719-12 공동주택 (박주식)","name":"지산동 719-12 공동주택 (박주식)","kind":"다세대","pnu":"2911011100107190012","address":"전남광주통합특별시 동구 지산동 719-12","source":"bld","households":13}},{"type":"Feature","geometry":{"type":"Point","coordinates":[126.92840545396285,35.15147300088148]},"properties":{"id":"2911011100107220009-가을동화","name":"가을동화","kind":"연립","pnu":"2911011100107220009","address":"전남광주통합특별시 동구 지산동 722-9","source":"bld","households":25}},{"type":"Feature","geometry":{"type":"Point","coordinates":[126.91695417397108,35.14300462221485]},"properties":{"id":"2911011400100570038-단비게스트하우스","name":"단비게스트하우스","kind":"다세대","pnu":"2911011400100570038","address":"전남광주통합특별시 동구 금동 57-38","source":"bld","households":null}},{"type":"Feature","geometry":{"type":"Point","coordinates":[126.91958758851165,35.14293990925057]},"properties":{"id":"2911011400101690003-뜰에봄","name":"뜰에봄","kind":"다세대","pnu":"2911011400101690003","address":"전남광주통합특별시 동구 금동 169-3","source":"bld","households":10}},{"type":"Feature","geometry":{"type":"Point","coordinates":[126.92398367970048,35.14546241106968]},"properties":{"id":"2911011800100280001-서석뉴젠빌","name":"서석뉴젠빌","kind":"다세대","pnu":"2911011800100280001","address":"전남광주통합특별시 동구 서석동 28-1","source":"bld","households":18}},{"type":"Feature","geometry":{"type":"Point","coordinates":[126.92300291671637,35.14460734508155]},"properties":{"id":"2911011800100930006-빛고을원룸","name":"빛고을원룸","kind":"다세대","pnu":"2911011800100930006","address":"전남광주통합특별시 동구 서석동 93-6","source":"bld","households":13}},{"type":"Feature","geometry":{"type":"Point","coordinates":[126.92307718223398,35.14420966972808]},"properties":{"id":"2911011800100940006-플러스","name":"플러스","kind":"도시형생활주택","pnu":"2911011800100940006","address":"전남광주통합특별시 동구 서석동 94-6","source":"bld","households":28}},{"type":"Feature","geometry":{"type":"Point","coordinates":[126.92296879400504,35.14384349830402]},"properties":{"id":"2911011800100970033-전남대학교병원명의관","name":"전남대학교병원명의관","kind":"도시형생활주택","pnu":"2911011800100970033","address":"전남광주통합특별시 동구 서석동 97-33","source":"bld","households":28}},{"type":"Feature","geometry":{"type":"Point","coordinates":[126.9222721526797,35.14383263226769]},"properties":{"id":"2911011800101190000-(119-0)","name":"(119-0)","kind":"다세대","pnu":"2911011800101190000","address":"전남광주통합특별시 동구 서석동 119","source":"bld","households":22}},{"type":"Feature","geometry":{"type":"Point","coordinates":[126.92700622676443,35.145246520746554]},"properties":{"id":"2911011800104280004-아크로빌","name":"아크로빌","kind":"다세대","pnu":"2911011800104280004","address":"전남광주통합특별시 동구 서석동 428-4","source":"bld","households":14}},{"type":"Feature","geometry":{"type":"Point","coordinates":[126.9278282196959,35.14482922929693]},"properties":{"id":"2911011800104290000-힐링하우스","name":"힐링하우스","kind":"도시형생활주택","pnu":"2911011800104290000","address":"전남광주통합특별시 동구 서석동 429","source":"bld","households":21}},{"type":"Feature","geometry":{"type":"Point","coordinates":[126.92448047235925,35.1439041146179]},"properties":{"id":"2911011800104680031-서석동 468-31 공동주택 (유태규)","name":"서석동 468-31 공동주택 (유태규)","kind":"도시형생활주택","pnu":"2911011800104680031","address":"전남광주통합특별시 동구 서석동 468-31","source":"bld","households":29}},{"type":"Feature","geometry":{"type":"Point","coordinates":[126.92431664562312,35.14360201001695]},"properties":{"id":"2911011800104700023-트라팰리스","name":"트라팰리스","kind":"다세대","pnu":"2911011800104700023","address":"전남광주통합특별시 동구 서석동 470-23","source":"bld","households":28}},{"type":"Feature","geometry":{"type":"Point","coordinates":[126.93275244888505,35.12842032329278]},"properties":{"id":"2911011900105320133-행운빌라","name":"행운빌라","kind":"다세대","pnu":"2911011900105320133","address":"전남광주통합특별시 동구 소태동 532-133","source":"bld","households":8}},{"type":"Feature","geometry":{"type":"Point","coordinates":[126.93383900479323,35.12808884946374]},"properties":{"id":"2911011900105510001-화광주택","name":"화광주택","kind":"연립","pnu":"2911011900105510001","address":"전남광주통합특별시 동구 소태동 551-1","source":"bld","households":18}},{"type":"Feature","geometry":{"type":"Point","coordinates":[126.93247491528598,35.12449682535378]},"properties":{"id":"2911011900106550000-삼진맨션","name":"삼진맨션","kind":"연립","pnu":"2911011900106550000","address":"전남광주통합특별시 동구 소태동 655","source":"bld","households":12}},{"type":"Feature","geometry":{"type":"Point","coordinates":[126.93309641895644,35.12243740393936]},"properties":{"id":"2911011900106710001-국제연립","name":"국제연립","kind":"연립","pnu":"2911011900106710001","address":"전남광주통합특별시 동구 소태동 671-1","source":"bld","households":18}},{"type":"Feature","geometry":{"type":"Point","coordinates":[126.93395409678442,35.12249105187227]},"properties":{"id":"2911011900106770000-영진연립주택","name":"영진연립주택","kind":"연립","pnu":"2911011900106770000","address":"전남광주통합특별시 동구 소태동 677","source":"bld","households":18}},{"type":"Feature","geometry":{"type":"Point","coordinates":[126.9368006991609,35.13150503900107]},"properties":{"id":"2911011900107220001-대한생명사택(722-1)","name":"대한생명사택(722-1)","kind":"연립","pnu":"2911011900107220001","address":"전남광주통합특별시 동구 소태동 722-1","source":"bld","households":11}},{"type":"Feature","geometry":{"type":"Point","coordinates":[126.93676636686254,35.13093546501515]},"properties":{"id":"2911011900107220019-무등스카이빌","name":"무등스카이빌","kind":"다세대","pnu":"2911011900107220019","address":"전남광주통합특별시 동구 소태동 722-19","source":"bld","households":10}},{"type":"Feature","geometry":{"type":"Point","coordinates":[126.93671084159783,35.13132091927905]},"properties":{"id":"2911011900107220072-대한생명사택(722-72)","name":"대한생명사택(722-72)","kind":"연립","pnu":"2911011900107220072","address":"전남광주통합특별시 동구 소태동 722-72","source":"bld","households":8}},{"type":"Feature","geometry":{"type":"Point","coordinates":[126.93858261172703,35.130541761428105]},"properties":{"id":"2911011900107720005-(772-5)","name":"(772-5)","kind":"연립","pnu":"2911011900107720005","address":"전남광주통합특별시 동구 소태동 772-5","source":"bld","households":29}},{"type":"Feature","geometry":{"type":"Point","coordinates":[126.92551312980798,35.138138641839404]},"properties":{"id":"2911012200100310009-금강하이빌","name":"금강하이빌","kind":"다세대","pnu":"2911012200100310009","address":"전남광주통합특별시 동구 학동 31-9","source":"bld","households":9}},{"type":"Feature","geometry":{"type":"Point","coordinates":[126.92522207155974,35.13770433952698]},"properties":{"id":"2911012200100310046-다세대","name":"다세대","kind":"다세대","pnu":"2911012200100310046","address":"전남광주통합특별시 동구 학동 31-46","source":"bld","households":null}},{"type":"Feature","geometry":{"type":"Point","coordinates":[126.94004928987499,35.13582532421126]},"properties":{"id":"2911012200102360001-학동 보라멘션","name":"학동 보라멘션","kind":"도시형생활주택","pnu":"2911012200102360001","address":"전남광주통합특별시 동구 학동 236-1","source":"bld","households":16}},{"type":"Feature","geometry":{"type":"Point","coordinates":[126.93874976642637,35.13511228988586]},"properties":{"id":"2911012200102580000-학운 다세대주택","name":"학운 다세대주택","kind":"다세대","pnu":"2911012200102580000","address":"전남광주통합특별시 동구 학동 258","source":"bld","households":7}},{"type":"Feature","geometry":{"type":"Point","coordinates":[126.92473384258227,35.14186652093089]},"properties":{"id":"2911012200105220003-도시형원룸","name":"도시형원룸","kind":"다세대","pnu":"2911012200105220003","address":"전남광주통합특별시 동구 학동 522-3","source":"bld","households":29}},{"type":"Feature","geometry":{"type":"Point","coordinates":[126.9245953977709,35.14133060761715]},"properties":{"id":"2911012200105240012-하얀빌","name":"하얀빌","kind":"다세대","pnu":"2911012200105240012","address":"전남광주통합특별시 동구 학동 524-12","source":"bld","households":16}},{"type":"Feature","geometry":{"type":"Point","coordinates":[126.92841931289202,35.13548747222272]},"properties":{"id":"2911012200106620050-학동 157-1 공동주택 (주식회사드림스테이대표고기우)","name":"학동 157-1 공동주택 (주식회사드림스테이대표고기우)","kind":"연립","pnu":"2911012200106620050","address":"전남광주통합특별시 동구 학동 662-50","source":"bld","households":16}},{"type":"Feature","geometry":{"type":"Point","coordinates":[126.93133429245216,35.13330790961534]},"properties":{"id":"2911012200106760010-한국아델리움스위트","name":"한국아델리움스위트","kind":"다세대","pnu":"2911012200106760010","address":"전남광주통합특별시 동구 학동 676-10","source":"bld","households":16}},{"type":"Feature","geometry":{"type":"Point","coordinates":[126.9330476317601,35.13345797815555]},"properties":{"id":"2911012200107160004-삼보하이츠빌","name":"삼보하이츠빌","kind":"연립","pnu":"2911012200107160004","address":"전남광주통합특별시 동구 학동 716-4","source":"bld","households":9}},{"type":"Feature","geometry":{"type":"Point","coordinates":[126.92981652816536,35.13267315350757]},"properties":{"id":"2911012200107350020-다세대","name":"다세대","kind":"다세대","pnu":"2911012200107350020","address":"전남광주통합특별시 동구 학동 735-20","source":"bld","households":null}},{"type":"Feature","geometry":{"type":"Point","coordinates":[126.92951924057624,35.13265125659686]},"properties":{"id":"2911012200107390000-그린빌라101","name":"그린빌라101","kind":"다세대","pnu":"2911012200107390000","address":"전남광주통합특별시 동구 학동 739","source":"bld","households":8}},{"type":"Feature","geometry":{"type":"Point","coordinates":[126.92974956253103,35.13257385691052]},"properties":{"id":"2911012200107390001-그린빌라102","name":"그린빌라102","kind":"다세대","pnu":"2911012200107390001","address":"전남광주통합특별시 동구 학동 739-1","source":"bld","households":12}},{"type":"Feature","geometry":{"type":"Point","coordinates":[126.930006027969,35.13249609149687]},"properties":{"id":"2911012200107390002-그린빌라103","name":"그린빌라103","kind":"다세대","pnu":"2911012200107390002","address":"전남광주통합특별시 동구 학동 739-2","source":"bld","households":12}},{"type":"Feature","geometry":{"type":"Point","coordinates":[126.9325768682512,35.13160079326491]},"properties":{"id":"2911012200107780005-(778-5)","name":"(778-5)","kind":"다세대","pnu":"2911012200107780005","address":"전남광주통합특별시 동구 학동 778-5","source":"bld","households":4}},{"type":"Feature","geometry":{"type":"Point","coordinates":[126.9325863356143,35.131480312325564]},"properties":{"id":"2911012200107780007-(778-7)","name":"(778-7)","kind":"다세대","pnu":"2911012200107780007","address":"전남광주통합특별시 동구 학동 778-7","source":"bld","households":4}},{"type":"Feature","geometry":{"type":"Point","coordinates":[126.9339885147314,35.13106738346797]},"properties":{"id":"2911012200107900003-(790-3)","name":"(790-3)","kind":"다세대","pnu":"2911012200107900003","address":"전남광주통합특별시 동구 학동 790-3","source":"bld","households":5}},{"type":"Feature","geometry":{"type":"Point","coordinates":[126.93044857314419,35.11976493849177]},"properties":{"id":"2911012600102390000-(239-0)","name":"(239-0)","kind":"다세대","pnu":"2911012600102390000","address":"전남광주통합특별시 동구 용산동 239","source":"bld","households":4}},{"type":"Feature","geometry":{"type":"Point","coordinates":[126.93090435802318,35.12036942248006]},"properties":{"id":"2911012600102430004-용산연립주택","name":"용산연립주택","kind":"다세대","pnu":"2911012600102430004","address":"전남광주통합특별시 동구 용산동 243-4","source":"bld","households":7}},{"type":"Feature","geometry":{"type":"Point","coordinates":[126.93233935494303,35.12134011072416]},"properties":{"id":"2911012600106360016-남룡주택","name":"남룡주택","kind":"연립","pnu":"2911012600106360016","address":"전남광주통합특별시 동구 용산동 636-16","source":"bld","households":26}},{"type":"Feature","geometry":{"type":"Point","coordinates":[126.9318918568996,35.12146225417549]},"properties":{"id":"2911012600106360053-용봉연립주택","name":"용봉연립주택","kind":"연립","pnu":"2911012600106360053","address":"전남광주통합특별시 동구 용산동 636-53","source":"bld","households":12}},{"type":"Feature","geometry":{"type":"Point","coordinates":[126.93264082801086,35.12105703465457]},"properties":{"id":"2911012600106360084-디딤돌타운","name":"디딤돌타운","kind":"도시형생활주택","pnu":"2911012600106360084","address":"전남광주통합특별시 동구 용산동 636-84","source":"bld","households":20}},{"type":"Feature","geometry":{"type":"Point","coordinates":[126.93692117164508,35.15480615399221]},"properties":{"id":"2911011000100210005-남양빌라","name":"남양빌라","kind":"아파트","pnu":"2911011000100210005","address":"전남광주통합특별시 동구 산수동 21-5","source":"aptid","households":10}},{"type":"Feature","geometry":{"type":"Point","coordinates":[126.92856764748251,35.1456407709526]},"properties":{"id":"2911011100105130000-서석맨션","name":"서석맨션","kind":"아파트","pnu":"2911011100105130000","address":"전남광주통합특별시 동구 지산동 513","source":"aptid","households":19}},{"type":"Feature","geometry":{"type":"Point","coordinates":[126.93527207536361,35.1203713924944]},"properties":{"id":"2911011900102060000-그린빌라","name":"그린빌라","kind":"아파트","pnu":"2911011900102060000","address":"전남광주통합특별시 동구 소태동 206","source":"aptid","households":17}},{"type":"Feature","geometry":{"type":"Point","coordinates":[126.93525381043926,35.13028996677316]},"properties":{"id":"2911011900107170005-삼호","name":"삼호","kind":"아파트","pnu":"2911011900107170005","address":"전남광주통합특별시 동구 소태동 717-5","source":"aptid","households":19}},{"type":"Feature","geometry":{"type":"Point","coordinates":[126.93879137910304,35.135357288247846]},"properties":{"id":"2911012200102480007-미라보","name":"미라보","kind":"아파트","pnu":"2911012200102480007","address":"전남광주통합특별시 동구 학동 248-7","source":"aptid","households":12}},{"type":"Feature","geometry":{"type":"Point","coordinates":[126.93798675851764,35.13455631559076]},"properties":{"id":"2911012200102590007-화이트빌","name":"화이트빌","kind":"아파트","pnu":"2911012200102590007","address":"전남광주통합특별시 동구 학동 259-7","source":"aptid","households":10}},{"type":"Feature","geometry":{"type":"Point","coordinates":[126.93312970696826,35.13268017016709]},"properties":{"id":"2911012200107210005-자민맨션","name":"자민맨션","kind":"아파트","pnu":"2911012200107210005","address":"전남광주통합특별시 동구 학동 721-5","source":"aptid","households":19}},{"type":"Feature","geometry":{"type":"Point","coordinates":[126.93278257047865,35.13274408941918]},"properties":{"id":"2911012200107210006-자민맨션2동","name":"자민맨션2동","kind":"아파트","pnu":"2911012200107210006","address":"전남광주통합특별시 동구 학동 721-6","source":"aptid","households":10}},{"type":"Feature","geometry":{"type":"Point","coordinates":[126.92408392453919,35.15029796350332]},"properties":{"id":"2911010800101540042-금석빌라","name":"금석빌라","kind":"아파트","pnu":"2911010800101540042","address":"전남광주통합특별시 동구 동명동 154-42","source":"aptid","households":10}},{"type":"Feature","geometry":{"type":"Point","coordinates":[126.93403795212939,35.131609321192435]},"properties":{"id":"2911012200107840001-신영루체클래식(784-1)","name":"신영루체클래식(784-1)","kind":"아파트","pnu":"2911012200107840001","address":"전남광주통합특별시 동구 학동 784-1","source":"aptid","households":19}},{"type":"Feature","geometry":{"type":"Point","coordinates":[126.93353055185975,35.13159332703403]},"properties":{"id":"2911012200107840000-신영루체클래식(784-0)","name":"신영루체클래식(784-0)","kind":"아파트","pnu":"2911012200107840000","address":"전남광주통합특별시 동구 학동 784","source":"aptid","households":18}},{"type":"Feature","geometry":{"type":"Point","coordinates":[126.94298612661044,35.13495098210463]},"properties":{"id":"2911012100105700000-샤인빌","name":"샤인빌","kind":"아파트","pnu":"2911012100105700000","address":"전남광주통합특별시 동구 운림동 570","source":"aptid","households":19}},{"type":"Feature","geometry":{"type":"Point","coordinates":[126.90888027150135,35.151023887460624]},"properties":{"id":"2911010400100210003-고운하이츠(21-3)","name":"고운하이츠(21-3)","kind":"아파트","pnu":"2911010400100210003","address":"전남광주통합특별시 동구 수기동 21-3","source":"aptid","households":25}},{"type":"Feature","geometry":{"type":"Point","coordinates":[126.93410264614656,35.12072781375557]},"properties":{"id":"2911011900106900000-NK아이리스1차","name":"NK아이리스1차","kind":"아파트","pnu":"2911011900106900000","address":"전남광주통합특별시 동구 소태동 690","source":"aptid","households":43}},{"type":"Feature","geometry":{"type":"Point","coordinates":[126.93297398343108,35.120791483350246]},"properties":{"id":"2911012600102700004-다보애주상복합APT","name":"다보애주상복합APT","kind":"아파트","pnu":"2911012600102700004","address":"전남광주통합특별시 동구 용산동 270-4","source":"aptid","households":44}},{"type":"Feature","geometry":{"type":"Point","coordinates":[126.92091323183791,35.15715187774654]},"properties":{"id":"2911010900102500089-아름진","name":"아름진","kind":"아파트","pnu":"2911010900102500089","address":"전남광주통합특별시 동구 계림동 250-89","source":"aptid","households":25}},{"type":"Feature","geometry":{"type":"Point","coordinates":[126.92920592373743,35.15309545405982]},"properties":{"id":"2911011000107150000-라도스하임","name":"라도스하임","kind":"아파트","pnu":"2911011000107150000","address":"전남광주통합특별시 동구 산수동 715","source":"aptid","households":111}},{"type":"Feature","geometry":{"type":"Point","coordinates":[126.90955859680736,35.15223458798165]},"properties":{"id":"2911010300100960004-로머스파크헤리티지","name":"로머스파크헤리티지","kind":"아파트","pnu":"2911010300100960004","address":"전남광주통합특별시 동구 충장로5가 96-4","source":"aptid","households":184}},{"type":"Feature","geometry":{"type":"Point","coordinates":[126.91696418133532,35.15101886528072]},"properties":{"id":"2911010600100660002-광주금남로한신더휴펜트하우스","name":"광주금남로한신더휴펜트하우스","kind":"아파트","pnu":"2911010600100660002","address":"전남광주통합특별시 동구 궁동 66-2","source":"aptid","households":99}},{"type":"Feature","geometry":{"type":"Point","coordinates":[126.92726191272467,35.15041765799032]},"properties":{"id":"2911010800101660001-동명아파트","name":"동명아파트","kind":"아파트","pnu":"2911010800101660001","address":"전남광주통합특별시 동구 동명동 166-1","source":"aptid","households":21}},{"type":"Feature","geometry":{"type":"Point","coordinates":[126.92342252983578,35.158604542424825]},"properties":{"id":"2911010900101910001-대명","name":"대명","kind":"아파트","pnu":"2911010900101910001","address":"전남광주통합특별시 동구 계림동 191-1","source":"aptid","households":60}},{"type":"Feature","geometry":{"type":"Point","coordinates":[126.93719338342558,35.15073312512255]},"properties":{"id":"2911011100103150000-동산","name":"동산","kind":"아파트","pnu":"2911011100103150000","address":"전남광주통합특별시 동구 지산동 315","source":"aptid","households":63}},{"type":"Feature","geometry":{"type":"Point","coordinates":[126.93742037611605,35.13407238524159]},"properties":{"id":"2911012200102650000-금호빌라트","name":"금호빌라트","kind":"아파트","pnu":"2911012200102650000","address":"전남광주통합특별시 동구 학동 265","source":"aptid","households":33}},{"type":"Feature","geometry":{"type":"Point","coordinates":[126.93216468987622,35.13317692879059]},"properties":{"id":"2911012200107190001-무등파크","name":"무등파크","kind":"아파트","pnu":"2911012200107190001","address":"전남광주통합특별시 동구 학동 719-1","source":"aptid","households":148}},{"type":"Feature","geometry":{"type":"Point","coordinates":[126.94450588085564,35.13258141897249]},"properties":{"id":"2911012100106810000-무등스위트빌라","name":"무등스위트빌라","kind":"아파트","pnu":"2911012100106810000","address":"전남광주통합특별시 동구 운림동 681","source":"aptid","households":19}},{"type":"Feature","geometry":{"type":"Point","coordinates":[126.9443746955766,35.13371190173565]},"properties":{"id":"2911012100105820000-보라빌라","name":"보라빌라","kind":"아파트","pnu":"2911012100105820000","address":"전남광주통합특별시 동구 운림동 582","source":"aptid","households":19}},{"type":"Feature","geometry":{"type":"Point","coordinates":[126.93523917690915,35.12910534801852]},"properties":{"id":"2911011900106980023-대주빌라","name":"대주빌라","kind":"아파트","pnu":"2911011900106980023","address":"전남광주통합특별시 동구 소태동 698-23","source":"aptid","households":20}},{"type":"Feature","geometry":{"type":"Point","coordinates":[126.93484321618209,35.12907954696358]},"properties":{"id":"2911011900107000002-진양","name":"진양","kind":"아파트","pnu":"2911011900107000002","address":"전남광주통합특별시 동구 소태동 700-2","source":"aptid","households":57}},{"type":"Feature","geometry":{"type":"Point","coordinates":[126.93015107459533,35.12054879574838]},"properties":{"id":"2911012600200390009-일광맨션","name":"일광맨션","kind":"아파트","pnu":"2911012600200390009","address":"전남광주통합특별시 동구 용산동 산 39-9","source":"aptid","households":55}},{"type":"Feature","geometry":{"type":"Point","coordinates":[126.93580134788323,35.11947637767208]},"properties":{"id":"2911011900202230000-대명","name":"대명","kind":"연립","pnu":"2911011900202230000","address":"전남광주통합특별시 동구 소태동 산 223","source":"aptid","households":111}},{"type":"Feature","geometry":{"type":"Point","coordinates":[126.93097275231153,35.13305421348471]},"properties":{"id":"2911012200106760011-은하맨션","name":"은하맨션","kind":"연립","pnu":"2911012200106760011","address":"전남광주통합특별시 동구 학동 676-11","source":"aptid","households":16}},{"type":"Feature","geometry":{"type":"Point","coordinates":[126.93096287246826,35.132881829274424]},"properties":{"id":"2911012200106760012-보람맨션","name":"보람맨션","kind":"연립","pnu":"2911012200106760012","address":"전남광주통합특별시 동구 학동 676-12","source":"aptid","households":18}},{"type":"Feature","geometry":{"type":"Point","coordinates":[126.9126715465511,35.14926207046116]},"properties":{"id":"2911013000100320000-충장맨션","name":"충장맨션","kind":"연립","pnu":"2911013000100320000","address":"전남광주통합특별시 동구 충장로4가 32","source":"aptid","households":16}},{"type":"Feature","geometry":{"type":"Point","coordinates":[126.9358698966411,35.148102092199494]},"properties":{"id":"2911011100102320022-썬빌라4","name":"썬빌라4","kind":"연립","pnu":"2911011100102320022","address":"전남광주통합특별시 동구 지산동 232-22","source":"aptid","households":16}},{"type":"Feature","geometry":{"type":"Point","coordinates":[126.90934742451908,35.15172822819878]},"properties":{"id":"2911010400100040005-더원에버빌","name":"더원에버빌","kind":"연립","pnu":"2911010400100040005","address":"전남광주통합특별시 동구 수기동 4-5","source":"aptid","households":20}},{"type":"Feature","geometry":{"type":"Point","coordinates":[126.92972975799857,35.11935570834949]},"properties":{"id":"2911012600102180002-용산동도나우이스트연립주택","name":"용산동도나우이스트연립주택","kind":"연립","pnu":"2911012600102180002","address":"전남광주통합특별시 동구 용산동 218-2","source":"aptid","households":8}},{"type":"Feature","geometry":{"type":"Point","coordinates":[126.93759097723449,35.1318349569686]},"properties":{"id":"2911011900107300000-소태아이윌","name":"소태아이윌","kind":"연립","pnu":"2911011900107300000","address":"전남광주통합특별시 동구 소태동 730","source":"aptid","households":20}},{"type":"Feature","geometry":{"type":"Point","coordinates":[126.93818699439174,35.13149850830342]},"properties":{"id":"2911011900107290001-(729-1)","name":"(729-1)","kind":"연립","pnu":"2911011900107290001","address":"전남광주통합특별시 동구 소태동 729-1","source":"aptid","households":27}},{"type":"Feature","geometry":{"type":"Point","coordinates":[126.92670838253682,35.156505435846604]},"properties":{"id":"2911011000104270001-보헤미안D","name":"보헤미안D","kind":"다세대","pnu":"2911011000104270001","address":"전남광주통합특별시 동구 산수동 427-1","source":"aptid","households":8}},{"type":"Feature","geometry":{"type":"Point","coordinates":[126.93887617071114,35.14839574292091]},"properties":{"id":"2911011100102800002-퍼스트빌","name":"퍼스트빌","kind":"다세대","pnu":"2911011100102800002","address":"전남광주통합특별시 동구 지산동 280-2","source":"aptid","households":9}},{"type":"Feature","geometry":{"type":"Point","coordinates":[126.93430372185261,35.1479867115561]},"properties":{"id":"2911011100104520001-대광빌라","name":"대광빌라","kind":"다세대","pnu":"2911011100104520001","address":"전남광주통합특별시 동구 지산동 452-1","source":"aptid","households":15}},{"type":"Feature","geometry":{"type":"Point","coordinates":[126.93318612639835,35.14738333975072]},"properties":{"id":"2911011100104600004-토마토빌","name":"토마토빌","kind":"다세대","pnu":"2911011100104600004","address":"전남광주통합특별시 동구 지산동 460-4","source":"aptid","households":16}},{"type":"Feature","geometry":{"type":"Point","coordinates":[126.93308336054939,35.14737985280365]},"properties":{"id":"2911011100104600007-아이빌","name":"아이빌","kind":"다세대","pnu":"2911011100104600007","address":"전남광주통합특별시 동구 지산동 460-7","source":"aptid","households":12}},{"type":"Feature","geometry":{"type":"Point","coordinates":[126.92102222333689,35.139736093164416]},"properties":{"id":"2911012200100550004-(55-4)","name":"(55-4)","kind":"다세대","pnu":"2911012200100550004","address":"전남광주통합특별시 동구 학동 55-4","source":"aptid","households":2}},{"type":"Feature","geometry":{"type":"Point","coordinates":[126.91618062544029,35.15436513125519]},"properties":{"id":"2911010100103110009-해피드림빌","name":"해피드림빌","kind":"다세대","pnu":"2911010100103110009","address":"전남광주통합특별시 동구 대인동 311-9","source":"aptid","households":13}},{"type":"Feature","geometry":{"type":"Point","coordinates":[126.91927896770153,35.15652521268206]},"properties":{"id":"2911010900102950004-계림빌라","name":"계림빌라","kind":"다세대","pnu":"2911010900102950004","address":"전남광주통합특별시 동구 계림동 295-4","source":"aptid","households":6}},{"type":"Feature","geometry":{"type":"Point","coordinates":[126.91751752950427,35.16065206716081]},"properties":{"id":"2911010900105300001-모두빌","name":"모두빌","kind":"다세대","pnu":"2911010900105300001","address":"전남광주통합특별시 동구 계림동 530-1","source":"aptid","households":9}},{"type":"Feature","geometry":{"type":"Point","coordinates":[126.91851321716608,35.16258520754198]},"properties":{"id":"2911010900105570001-달성주택","name":"달성주택","kind":"다세대","pnu":"2911010900105570001","address":"전남광주통합특별시 동구 계림동 557-1","source":"aptid","households":6}},{"type":"Feature","geometry":{"type":"Point","coordinates":[126.93717063420483,35.15551335424514]},"properties":{"id":"2911011000100630009-금현빌","name":"금현빌","kind":"다세대","pnu":"2911011000100630009","address":"전남광주통합특별시 동구 산수동 63-9","source":"aptid","households":17}},{"type":"Feature","geometry":{"type":"Point","coordinates":[126.92318106088068,35.15575833961931]},"properties":{"id":"2911011000104840003-광우빌라","name":"광우빌라","kind":"다세대","pnu":"2911011000104840003","address":"전남광주통합특별시 동구 산수동 484-3","source":"aptid","households":19}},{"type":"Feature","geometry":{"type":"Point","coordinates":[126.93313464622287,35.153619771849584]},"properties":{"id":"2911011000105170014-(517-14)","name":"(517-14)","kind":"다세대","pnu":"2911011000105170014","address":"전남광주통합특별시 동구 산수동 517-14","source":"aptid","households":6}},{"type":"Feature","geometry":{"type":"Point","coordinates":[126.93159172865327,35.159514597309354]},"properties":{"id":"2911011000105370022-크라운베스트빌","name":"크라운베스트빌","kind":"다세대","pnu":"2911011000105370022","address":"전남광주통합특별시 동구 산수동 537-22","source":"aptid","households":19}},{"type":"Feature","geometry":{"type":"Point","coordinates":[126.93161211424483,35.15941820927225]},"properties":{"id":"2911011000105370023-산수베스트빌","name":"산수베스트빌","kind":"다세대","pnu":"2911011000105370023","address":"전남광주통합특별시 동구 산수동 537-23","source":"aptid","households":16}},{"type":"Feature","geometry":{"type":"Point","coordinates":[126.93079561064405,35.14934026720829]},"properties":{"id":"2911011100104130001-지산다세대","name":"지산다세대","kind":"다세대","pnu":"2911011100104130001","address":"전남광주통합특별시 동구 지산동 413-1","source":"aptid","households":8}},{"type":"Feature","geometry":{"type":"Point","coordinates":[126.91650490734187,35.14417567745728]},"properties":{"id":"2911011400100390000-동산빌","name":"동산빌","kind":"다세대","pnu":"2911011400100390000","address":"전남광주통합특별시 동구 금동 39","source":"aptid","households":18}},{"type":"Feature","geometry":{"type":"Point","coordinates":[126.93448095256257,35.13134850369367]},"properties":{"id":"2911012200107880000-학동미래빌101동","name":"학동미래빌101동","kind":"다세대","pnu":"2911012200107880000","address":"전남광주통합특별시 동구 학동 788","source":"aptid","households":8}},{"type":"Feature","geometry":{"type":"Point","coordinates":[126.9344841102344,35.13117607407848]},"properties":{"id":"2911012200107880012-학동미래빌102동","name":"학동미래빌102동","kind":"다세대","pnu":"2911012200107880012","address":"전남광주통합특별시 동구 학동 788-12","source":"aptid","households":8}},{"type":"Feature","geometry":{"type":"Point","coordinates":[126.92648807578061,35.1563475200532]},"properties":{"id":"2911011000104280000-보헤미안C","name":"보헤미안C","kind":"다세대","pnu":"2911011000104280000","address":"전남광주통합특별시 동구 산수동 428","source":"aptid","households":8}},{"type":"Feature","geometry":{"type":"Point","coordinates":[126.9161976285401,35.15836007368022]},"properties":{"id":"2911010900105880003-미트빌라","name":"미트빌라","kind":"다세대","pnu":"2911010900105880003","address":"전남광주통합특별시 동구 계림동 588-3","source":"aptid","households":4}},{"type":"Feature","geometry":{"type":"Point","coordinates":[126.92678988593957,35.156355367071924]},"properties":{"id":"2911011000104270015-보헤미안E","name":"보헤미안E","kind":"다세대","pnu":"2911011000104270015","address":"전남광주통합특별시 동구 산수동 427-15","source":"aptid","households":8}},{"type":"Feature","geometry":{"type":"Point","coordinates":[126.93163327261539,35.159318937910086]},"properties":{"id":"2911011000105370020-산수하이빌","name":"산수하이빌","kind":"다세대","pnu":"2911011000105370020","address":"전남광주통합특별시 동구 산수동 537-20","source":"aptid","households":9}},{"type":"Feature","geometry":{"type":"Point","coordinates":[126.93407278830219,35.14817308768738]},"properties":{"id":"2911011100104500007-삼성하이빌","name":"삼성하이빌","kind":"다세대","pnu":"2911011100104500007","address":"전남광주통합특별시 동구 지산동 450-7","source":"aptid","households":19}},{"type":"Feature","geometry":{"type":"Point","coordinates":[126.93418271405051,35.147999150411536]},"properties":{"id":"2911011100104520013-도연스카이","name":"도연스카이","kind":"다세대","pnu":"2911011100104520013","address":"전남광주통합특별시 동구 지산동 452-13","source":"aptid","households":12}},{"type":"Feature","geometry":{"type":"Point","coordinates":[126.9322462884334,35.147397975409945]},"properties":{"id":"2911011100104610001-현대하이빌","name":"현대하이빌","kind":"다세대","pnu":"2911011100104610001","address":"전남광주통합특별시 동구 지산동 461-1","source":"aptid","households":14}},{"type":"Feature","geometry":{"type":"Point","coordinates":[126.93421195155459,35.14855952942389]},"properties":{"id":"2911011100104290007-전진하이빌","name":"전진하이빌","kind":"다세대","pnu":"2911011100104290007","address":"전남광주통합특별시 동구 지산동 429-7","source":"aptid","households":19}},{"type":"Feature","geometry":{"type":"Point","coordinates":[126.92763426030606,35.14488731342131]},"properties":{"id":"2911011800104290001-다인하우스","name":"다인하우스","kind":"다세대","pnu":"2911011800104290001","address":"전남광주통합특별시 동구 서석동 429-1","source":"aptid","households":27}},{"type":"Feature","geometry":{"type":"Point","coordinates":[126.92468916433663,35.14396176435585]},"properties":{"id":"2911011800104680007-베니스빌","name":"베니스빌","kind":"다세대","pnu":"2911011800104680007","address":"전남광주통합특별시 동구 서석동 468-7","source":"aptid","households":14}},{"type":"Feature","geometry":{"type":"Point","coordinates":[126.93275064702834,35.13198141175642]},"properties":{"id":"2911012200107300005-대승빌","name":"대승빌","kind":"다세대","pnu":"2911012200107300005","address":"전남광주통합특별시 동구 학동 730-5","source":"aptid","households":18}},{"type":"Feature","geometry":{"type":"Point","coordinates":[126.93643516554513,35.12624034256853]},"properties":{"id":"2911011900105080004-해피니스","name":"해피니스","kind":"다세대","pnu":"2911011900105080004","address":"전남광주통합특별시 동구 소태동 508-4","source":"aptid","households":16}},{"type":"Feature","geometry":{"type":"Point","coordinates":[126.93109506930608,35.151776417829055]},"properties":{"id":"2911011100107190004-신세계빌라","name":"신세계빌라","kind":"다세대","pnu":"2911011100107190004","address":"전남광주통합특별시 동구 지산동 719-4","source":"aptid","households":27}},{"type":"Feature","geometry":{"type":"Point","coordinates":[126.92474053588674,35.145177718744975]},"properties":{"id":"2911011800100190009-(19-9)","name":"(19-9)","kind":"다세대","pnu":"2911011800100190009","address":"전남광주통합특별시 동구 서석동 19-9","source":"aptid","households":20}},{"type":"Feature","geometry":{"type":"Point","coordinates":[126.9278721748901,35.12779895215471]},"properties":{"id":"2911011900109540000-(954-0)","name":"(954-0)","kind":"다세대","pnu":"2911011900109540000","address":"전남광주통합특별시 동구 소태동 954","source":"aptid","households":7}},{"type":"Feature","geometry":{"type":"Point","coordinates":[126.91643187255244,35.15949350851248]},"properties":{"id":"2911010900105370013-(537-13)","name":"(537-13)","kind":"다세대","pnu":"2911010900105370013","address":"전남광주통합특별시 동구 계림동 537-13","source":"aptid","households":8}},{"type":"Feature","geometry":{"type":"Point","coordinates":[126.94016062598521,35.136491804127225]},"properties":{"id":"2911012200102230001-학동더브이레브리티","name":"학동더브이레브리티","kind":"다세대","pnu":"2911012200102230001","address":"전남광주통합특별시 동구 학동 223-1","source":"aptid","households":28}}]}
