{
  "type": "FeatureCollection",
  "features": [
    { "type": "Feature", "properties": { "id": "light-01", "type": "streetlight", "name": "금남로 보안등 01", "source": "mock", "installedAt": "2021-04" }, "geometry": { "type": "Point", "coordinates": [126.9181, 35.1470] } },
    { "type": "Feature", "properties": { "id": "light-02", "type": "streetlight", "name": "금남로 보안등 02", "source": "mock", "installedAt": "2022-07" }, "geometry": { "type": "Point", "coordinates": [126.9200, 35.1472] } },
    { "type": "Feature", "properties": { "id": "light-03", "type": "streetlight", "name": "충장로 보안등 01", "source": "mock", "installedAt": "2020-11" }, "geometry": { "type": "Point", "coordinates": [126.9223, 35.1460] } },
    { "type": "Feature", "properties": { "id": "light-04", "type": "streetlight", "name": "동명로 보안등 01", "source": "mock", "installedAt": "2023-02" }, "geometry": { "type": "Point", "coordinates": [126.9267, 35.1498] } },
    { "type": "Feature", "properties": { "id": "light-05", "type": "streetlight", "name": "제봉로 보안등 01", "source": "mock", "installedAt": "2019-09" }, "geometry": { "type": "Point", "coordinates": [126.9238, 35.1510] } },
    { "type": "Feature", "properties": { "id": "light-06", "type": "streetlight", "name": "문화전당로 보안등 01", "source": "mock", "installedAt": "2021-12" }, "geometry": { "type": "Point", "coordinates": [126.9216, 35.1430] } },
    { "type": "Feature", "properties": { "id": "light-07", "type": "streetlight", "name": "산수동 보안등 01", "source": "mock", "installedAt": "2018-05" }, "geometry": { "type": "Point", "coordinates": [126.9328, 35.1540] } },
    { "type": "Feature", "properties": { "id": "light-08", "type": "streetlight", "name": "학동 보안등 01", "source": "mock", "installedAt": "2022-10" }, "geometry": { "type": "Point", "coordinates": [126.9282, 35.1392] } },

    { "type": "Feature", "properties": { "id": "cctv-01", "type": "cctv", "name": "금남로 생활방범 CCTV", "source": "mock", "note": "샘플 위치" }, "geometry": { "type": "Point", "coordinates": [126.9193, 35.1468] } },
    { "type": "Feature", "properties": { "id": "cctv-02", "type": "cctv", "name": "충장로 생활방범 CCTV", "source": "mock", "note": "샘플 위치" }, "geometry": { "type": "Point", "coordinates": [126.9238, 35.1450] } },
    { "type": "Feature", "properties": { "id": "cctv-03", "type": "cctv", "name": "동명동 생활방범 CCTV", "source": "mock", "note": "샘플 위치" }, "geometry": { "type": "Point", "coordinates": [126.9276, 35.1511] } },
    { "type": "Feature", "properties": { "id": "cctv-04", "type": "cctv", "name": "서남동 생활방범 CCTV", "source": "mock", "note": "샘플 위치" }, "geometry": { "type": "Point", "coordinates": [126.9255, 35.1415] } },

    { "type": "Feature", "properties": { "id": "cpted-01", "type": "cpted", "name": "동명동 안심환경 시설", "source": "mock", "note": "CPTED 시설 표본" }, "geometry": { "type": "Point", "coordinates": [126.9290, 35.1498] } },
    { "type": "Feature", "properties": { "id": "cpted-02", "type": "cpted", "name": "충장동 안심환경 시설", "source": "mock", "note": "CPTED 시설 표본" }, "geometry": { "type": "Point", "coordinates": [126.9215, 35.1448] } },

    { "type": "Feature", "properties": { "id": "store-01", "type": "convenience_store", "name": "24시 편의점 금남점", "source": "mock" }, "geometry": { "type": "Point", "coordinates": [126.9178, 35.1462] } },
    { "type": "Feature", "properties": { "id": "store-02", "type": "convenience_store", "name": "24시 편의점 충장점", "source": "mock" }, "geometry": { "type": "Point", "coordinates": [126.9248, 35.1460] } },
    { "type": "Feature", "properties": { "id": "store-03", "type": "convenience_store", "name": "24시 편의점 동명점", "source": "mock" }, "geometry": { "type": "Point", "coordinates": [126.9283, 35.1516] } },

    { "type": "Feature", "properties": { "id": "bell-01", "type": "emergency_bell", "name": "문화전당 안심 비상벨", "source": "mock" }, "geometry": { "type": "Point", "coordinates": [126.9220, 35.1433] } },
    { "type": "Feature", "properties": { "id": "bell-02", "type": "emergency_bell", "name": "동명동 안심 비상벨", "source": "mock" }, "geometry": { "type": "Point", "coordinates": [126.9270, 35.1496] } },

    { "type": "Feature", "properties": { "id": "old-01", "type": "old_building", "name": "노후건축물 표본 01", "source": "mock", "note": "실제 건축물대장 자료가 아닌 샘플" }, "geometry": { "type": "Point", "coordinates": [126.9162, 35.1492] } },
    { "type": "Feature", "properties": { "id": "old-02", "type": "old_building", "name": "노후건축물 표본 02", "source": "mock", "note": "실제 건축물대장 자료가 아닌 샘플" }, "geometry": { "type": "Point", "coordinates": [126.9170, 35.1500] } },
    { "type": "Feature", "properties": { "id": "old-03", "type": "old_building", "name": "노후건축물 표본 03", "source": "mock", "note": "실제 건축물대장 자료가 아닌 샘플" }, "geometry": { "type": "Point", "coordinates": [126.9315, 35.1530] } },
    { "type": "Feature", "properties": { "id": "old-04", "type": "old_building", "name": "노후건축물 표본 04", "source": "mock", "note": "실제 건축물대장 자료가 아닌 샘플" }, "geometry": { "type": "Point", "coordinates": [126.9322, 35.1538] } },
    { "type": "Feature", "properties": { "id": "old-05", "type": "old_building", "name": "노후건축물 표본 05", "source": "mock", "note": "실제 건축물대장 자료가 아닌 샘플" }, "geometry": { "type": "Point", "coordinates": [126.9258, 35.1399] } }
  ]
}
